,"Ward","Pincode","Address","Unnamed: 0"," Area","State","Number","Region","Area_Tag","Latitude","Longitude","BMC_Ward"
0,"A ",400001,"Blossoms,ModiStrret,OppFishMarket,Fort",1,"Mumbai G.P.O.","Maharashtra",16,"Mumbai","Mumbai",18.6292,72.8921,
1,"A ",400001,"Sahayog,5,MintRoad,OppGpo,Fort",1,"Mumbai G.P.O.","Maharashtra",16,"Mumbai","Mumbai",18.6291,72.8919,
2,"A ",400005,"AbbasBuilding,BKBomanBehramMarg,BackSideOfTajHotel,Colaba",5,"Colaba","Maharashtra",16,"Mumbai","Mumbai",18.9069,72.8106,
3,"A ",400005,"BandusCourt,1StPastaLane,Colaba",5,"Colaba","Maharashtra",16,"Mumbai","Mumbai",18.9069,72.8106,
4,"A ",400005,"GaneshmurthiNagarPartNo1,3,CaptainPrakashPetheMarg,Colaba",5,"Colaba","Maharashtra",16,"Mumbai","Mumbai",18.9069,72.8106,
5,"A ",400005,"GaneshmurthiNagarPartNo2,CaptainPrakashPetheMarg,Colaba",5,"Colaba","Maharashtra",16,"Mumbai","Mumbai",18.9069,72.8106,
6,"A ",400005,"MistryChamber,StrandRoad,NearStrandRoad,Colaba",5,"Colaba","Maharashtra",16,"Mumbai","Mumbai",18.9069,72.8106,
7,"A ",400005,"MuniraBuilding,ShahidBhagatsinghRoad,NearDelhiDarbarHotel,Colaba",5,"Colaba","Maharashtra",16,"Mumbai","Mumbai",18.9069,72.8106,
8,"A ",400005,"NarangHouse,ArthurBunderRoad,NearGatewayOfIndia,Colaba",5,"Colaba","Maharashtra",16,"Mumbai","Mumbai",18.9069,72.8106,
9,"A ",400005,"ShivshaktiNagar,FreePressJournalRoad,NarimanPoint,Colaba",5,"Colaba","Maharashtra",16,"Mumbai","Mumbai",18.9069,72.8106,
10,"A ",400005,"SunderNagar,IndumatiSakrikarMarg,NearColabaMarket,Colaba",5,"Colaba","Maharashtra",16,"Mumbai","Mumbai",18.9069,72.8106,
11,"A ",400020,"BirlaMatoshreeQuarters,BomabyHospitalPremises,VitthaldasThakrsiMarg,MarineLines",73,"Central Building","Maharashtra",16,"Mumbai","Mumbai",18.986,72.8259,
12,"A ",400021,"GaribJanataNagar,BadhwarPark,CaptainPrakashPetheMarg,CuffeParade",74,"Nariman Point","Maharashtra",16,"Mumbai","Mumbai",18.9274,72.8241,
13,"A ",400021,"GeetaNagar,DrHomiBhabhaRoad,NearNavyNagar,Colaba",74,"Nariman Point","Maharashtra",16,"Mumbai","Mumbai",18.9274,72.8241,
14,"B ",400003,"HajiMansion,TantanpuraRd,",3,"Mandvi (Mumbai)","Maharashtra",16,"Mumbai",,18.95,72.8333,
15,"B ",400003,"Hutment,SantTukaramRoad,",3,"Mandvi (Mumbai)","Maharashtra",16,"Mumbai",,18.95,72.8333,
16,"B ",400003,"LuckyMansion,MohdAliRd,",3,"Mandvi (Mumbai)","Maharashtra",16,"Mumbai",,18.95,72.8333,
17,"B ",400003,"MadinaManzil,OldBengalipura,",3,"Mandvi (Mumbai)","Maharashtra",16,"Mumbai",,18.95,72.8333,
18,"B ",400003,"NobelTower,ZakeriaMasjidStreet,",3,"Mandvi (Mumbai)","Maharashtra",16,"Mumbai",,18.95,72.8333,
19,"B ",400003,"NoorHospitalBuilding,MohdAliRd,",3,"Mandvi (Mumbai)","Maharashtra",16,"Mumbai",,18.95,72.8333,
20,"B ",400003,"RKManzil,OldBengalipura,",3,"Mandvi (Mumbai)","Maharashtra",16,"Mumbai",,18.95,72.8333,
21,"B ",400009,"AWing,KgnCHS,KgnCHS,ImamwadaRoad,",9,"Noor Baug","Maharashtra",16,"Mumbai",,18.6291,72.8919,
22,"B ",400009,"AmirAliBuilding,ShahidaMarg,",9,"Noor Baug","Maharashtra",16,"Mumbai",,18.6291,72.8919,
23,"B ",400009,"GNHeights,NishanpadaRoad,",9,"Noor Baug","Maharashtra",16,"Mumbai",,18.6291,72.8919,
24,"B ",400009,"GandhiGodown,MasjidSidingRoad,",9,"Noor Baug","Maharashtra",16,"Mumbai",,18.6291,72.8919,
25,"B ",400009,"GustadChamber,LNJadhavMarg,",9,"Noor Baug","Maharashtra",16,"Mumbai",,18.6291,72.8919,
26,"B ",400009,"IbrahimManor,SvpRd,",9,"Noor Baug","Maharashtra",16,"Mumbai",,18.6291,72.8919,
27,"B ",400009,"JayrajPirbhaiBuilding,SamuelStreet,",9,"Noor Baug","Maharashtra",16,"Mumbai",,18.6291,72.8919,
28,"B ",400009,"JumaMasjidBuilding,NishanpadaRoad,",9,"Noor Baug","Maharashtra",16,"Mumbai",,18.6291,72.8919,
29,"B ",400009,"KashmiriManzilBuilding,JBShahMarg,",9,"Noor Baug","Maharashtra",16,"Mumbai",,18.6291,72.8919,
30,"B ",400009,"KhatijabaiBuilding,NishanpadaRoad,",9,"Noor Baug","Maharashtra",16,"Mumbai",,18.6291,72.8919,
31,"B ",400009,"SabooSiddiqueHospitalBuilding,ImamwadaRd,",9,"Noor Baug","Maharashtra",16,"Mumbai",,18.6291,72.8919,
32,"B ",400009,"SamsonApt,RamchandraBhattMarg,",9,"Noor Baug","Maharashtra",16,"Mumbai",,18.6291,72.8919,
33,"C ",400003,"AWing,SuryadarshanBuilding,SuryadarshanBuildingAWing,SantsenaMarg,SecondKumbharwada,Girgaon",3,"Mandvi (Mumbai)","Maharashtra",16,"Mumbai",,18.95,72.8333,
34,"C ",400003,"BWing,SuryadarshanBuilding,SuryadarshanBuildingBWing,SantsenaMarg,SecondKumbharwada,Girgaon",3,"Mandvi (Mumbai)","Maharashtra",16,"Mumbai",,18.95,72.8333,
35,"C ",400003,"BoriChawl,KapreshwarMarg,Fanaswadi,Kalbadevi",3,"Mandvi (Mumbai)","Maharashtra",16,"Mumbai",,18.95,72.8333,
36,"C ",400003,"BuildingNo123,AliUmarStreet,MarineLines",3,"Mandvi (Mumbai)","Maharashtra",16,"Mumbai",,18.95,72.8333,
37,"C ",400003,"FirdosManzil,GhogariMuhalla,NoorBakery,GhogariMuhalla",3,"Mandvi (Mumbai)","Maharashtra",16,"Mumbai",,18.95,72.8333,
38,"C ",400003,"FitwalaBuilding,ChimnaBucherStreet,NullBazar",3,"Mandvi (Mumbai)","Maharashtra",16,"Mumbai",,18.95,72.8333,
39,"C ",400003,"HotelDelight,IRRoad,BhendiBazar,MarineLines",3,"Mandvi (Mumbai)","Maharashtra",16,"Mumbai",,18.95,72.8333,
40,"C ",400003,"IslampuraMasjid,IslampuraStreet,IslampuraMasjid,CharniRoadEast",3,"Mandvi (Mumbai)","Maharashtra",16,"Mumbai",,18.95,72.8333,
41,"C ",400003,"KeshavNursingBuilding,MahadevShankarSethLane,ChiraBazar",3,"Mandvi (Mumbai)","Maharashtra",16,"Mumbai",,18.95,72.8333,
42,"C ",400003,"LDMansion,JssRd,DhobiTalao",3,"Mandvi (Mumbai)","Maharashtra",16,"Mumbai",,18.95,72.8333,
43,"C ",400003,"VivekBuilding,KalbadeviRoad,Badamwadi",3,"Mandvi (Mumbai)","Maharashtra",16,"Mumbai",,18.95,72.8333,
44,"C ",400004,"NalawalaBuilding,BhaiJivanjiLane,NearSKPatilGarden,Mumbai",4,"Madhavbaug","Maharashtra",16,"Mumbai","Mumbai",18.95,72.8167,
45,"C ",400004,"PhadkeBuilding,GangaramKhatriwadiThakurdwar,Thakurdwar",4,"Madhavbaug","Maharashtra",16,"Mumbai","Mumbai",18.95,72.8167,
46,"D ",400004,"GulshanTalkiesBuilding,PBMarg,ChorBazar,GrantRoad",4,"Madhavbaug","Maharashtra",16,"Mumbai","Mumbai",18.95,72.8167,
47,"D ",400004,"KhemrajBhavanBuilding,KhetwadiBackRoad,KhambataLane,Khetwadi",4,"Madhavbaug","Maharashtra",16,"Mumbai","Mumbai",18.95,72.8167,
48,"D ",400004,"KhotachiWadi,JssRoad,DhobiGhat,Girgaon",4,"Madhavbaug","Maharashtra",16,"Mumbai","Mumbai",18.95,72.8167,
49,"D ",400004,"MaliBhavan,Girgaon,8ThKhetwadi,Girgaon",4,"Madhavbaug","Maharashtra",16,"Mumbai","Mumbai",18.95,72.8167,
50,"D ",400004,"RainbowHeights,Khotachiwadi,VPRoad,GrantRoad(W),Girgaon",4,"Madhavbaug","Maharashtra",16,"Mumbai","Mumbai",18.95,72.8167,
51,"D ",400006,"DoshiPalace,WalkeshwarRd,MalabarHill,Walkeshwar",6,"Malabar Hill","Maharashtra",16,"Mumbai","Mumbai",18.95,72.7833,
52,"D ",400006,"JaslokHospital,PeddarRoad,CumbalaHill,GrantRd",6,"Malabar Hill","Maharashtra",16,"Mumbai","Mumbai",18.95,72.7833,
53,"D ",400007,"12ThLaneKhetwadi,MithaiwalaMansion,GrantRoad,NearBalwasHotel,Khetwadi",7,"Tardeo","Maharashtra",16,"Mumbai","Mumbai",18.9667,72.8167,
54,"D ",400007,"AmorinaHeigtsCHS,GrantRoad,BhajiGalli,GrantRoad(W)",7,"Tardeo","Maharashtra",16,"Mumbai","Mumbai",18.9667,72.8167,
55,"D ",400007,"AuburnHouseBuilding,ForjettStreet,GrantRd",7,"Tardeo","Maharashtra",16,"Mumbai","Mumbai",18.9667,72.8167,
56,"D ",400007,"AvishkarBuilding,GrantRoad,GrantRd",7,"Tardeo","Maharashtra",16,"Mumbai","Mumbai",18.9667,72.8167,
57,"D ",400007,"BWing,JaiHariBuilding,JaiHariBuilding,VNMarg,GawaliaTank,GrantRd",7,"Tardeo","Maharashtra",16,"Mumbai","Mumbai",18.9667,72.8167,
58,"D ",400007,"BhatiaHospital,TardeoRoad,OldChikalwadi,GrantRoad",7,"Tardeo","Maharashtra",16,"Mumbai","Mumbai",18.9667,72.8167,
59,"D ",400007,"CWing,NavyugMansion,NavyugMansion,FrereBridge,Nanachowk,GrantRoad",7,"Tardeo","Maharashtra",16,"Mumbai","Mumbai",18.9667,72.8167,
60,"D ",400007,"FirozaMansion,LamingtonRoad,ShapurBaug,GrantRoad",7,"Tardeo","Maharashtra",16,"Mumbai","Mumbai",18.9667,72.8167,
61,"D ",400007,"KalyanBuilding,SadashivCrossLane,Kandawadi,GrantRd",7,"Tardeo","Maharashtra",16,"Mumbai","Mumbai",18.9667,72.8167,
62,"D ",400007,"KaraiEstate,KNRoad,Gaodevi,GrantRoad",7,"Tardeo","Maharashtra",16,"Mumbai","Mumbai",18.9667,72.8167,
63,"D ",400007,"NemaniBuilding,NSPatkarMarg,GirgaonChowpatty",7,"Tardeo","Maharashtra",16,"Mumbai","Mumbai",18.9667,72.8167,
64,"D ",400007,"SpentaTower,ForjettStreet,GowaliaTank,GrantRoad",7,"Tardeo","Maharashtra",16,"Mumbai","Mumbai",18.9667,72.8167,
65,"D ",400007,"TardeoCourtBuilding,JDMarg,BhatiaHospital,Tardeo",7,"Tardeo","Maharashtra",16,"Mumbai","Mumbai",18.9667,72.8167,
66,"D ",400008,"BatataChawl,PBMarg,GrantRoad,GrantRd",8,"Kamathipura","Maharashtra",16,"Mumbai","Mumbai",18.6291,72.8919,
67,"D ",400008,"BismillahBuilding,OmkarNivas,PBMarg,GrantRoad",8,"Kamathipura","Maharashtra",16,"Mumbai","Mumbai",18.6291,72.8919,
68,"D ",400008,"Building318,LokhandwalaChawl,BaptyRoad,ArabGalli,GrantRoad",8,"Kamathipura","Maharashtra",16,"Mumbai","Mumbai",18.6291,72.8919,
69,"D ",400008,"CWing,AmatullahBuilding,AmatullahBuilding,PbMarg,ArabLane,GrantRoad",8,"Kamathipura","Maharashtra",16,"Mumbai","Mumbai",18.6291,72.8919,
70,"D ",400008,"DelhiDarbarHotel,PBMarg,GrantRoad,GrantRd",8,"Kamathipura","Maharashtra",16,"Mumbai","Mumbai",18.6291,72.8919,
71,"D ",400008,"KailashApartment,JbbRd,DalalEstate,MumbaiCentral",8,"Kamathipura","Maharashtra",16,"Mumbai","Mumbai",18.6291,72.8919,
72,"D ",400008,"KamarBuilding,KKMarg,OppNavjivanSociety,Kamathipura",8,"Kamathipura","Maharashtra",16,"Mumbai","Mumbai",18.6291,72.8919,
73,"D ",400008,"LokhanwalaChawl,ArabLane,GrantRoad",8,"Kamathipura","Maharashtra",16,"Mumbai","Mumbai",18.6291,72.8919,
74,"D ",400008,"MangliKanduriChawl,RSNimkarMarg,GrantRoad",8,"Kamathipura","Maharashtra",16,"Mumbai","Mumbai",18.6291,72.8919,
75,"D ",400008,"NoorManzil,6ThKumbharwada,ChorBazar,Kamathipura",8,"Kamathipura","Maharashtra",16,"Mumbai","Mumbai",18.6291,72.8919,
76,"D ",400008,"SothFaceChawl,SouthFaceChawl,RsNimkarMarg,FarasRd,Kamatipura",8,"Kamathipura","Maharashtra",16,"Mumbai","Mumbai",18.6291,72.8919,
77,"D ",400009,"BatliwalaCompound,BaptyRoad,FaujiyaHospital,GrantRoad",9,"Noor Baug","Maharashtra",16,"Mumbai",,18.6291,72.8919,
78,"D ",400026,"AshaNagarZopadapatti,NepeanSeaRoad,PriyadarshaniPark,NepeanSeaRoad",83,"Cumballa Sea Face","Maharashtra",16,"Mumbai","Mumbai",18.9667,72.8,
79,"D ",400026,"BWing,NalandaBuilding,NalandaBuilding,PeddarRoad,JaslokHospital,PeddarRoad",83,"Cumballa Sea Face","Maharashtra",16,"Mumbai","Mumbai",18.9667,72.8,
80,"D ",400026,"CasaKhorakiwalaBunglow,VakilLane,DrGDMarg,RusianCulturalCentralLane,PedderRoad",83,"Cumballa Sea Face","Maharashtra",16,"Mumbai","Mumbai",18.9667,72.8,
81,"D ",400026,"ShyamNiwasBuilding,BhulabaiDesaiRoad,BreachCandyHospital,CumballaHil",83,"Cumballa Sea Face","Maharashtra",16,"Mumbai","Mumbai",18.9667,72.8,
82,"D ",400026,"VallabhApartment,BhulabaiDesaiRoad,BreachCandyHospital,CumballaHill",83,"Cumballa Sea Face","Maharashtra",16,"Mumbai","Mumbai",18.9667,72.8,
83,"D ",400034,"BuildingNo-11,TransitCampBuilding,BhanjibhaiRathodMarg,Tulsiwadi,MumbaiCentral",111,"Tulsiwadi","Maharashtra",16,"Mumbai","Mumbai",19.0167,72.85,
84,"D ",400034,"DWing,JantaNagarBuilding,JantaNagar,JDMarg,Tardeo",111,"Tulsiwadi","Maharashtra",16,"Mumbai","Mumbai",19.0167,72.85,
85,"D ",400034,"DmdJhopadpatti,TardeoRd,Tulsiwadi,Tardeo",111,"Tulsiwadi","Maharashtra",16,"Mumbai","Mumbai",19.0167,72.85,
86,"D ",400034,"DmgZopadpatti,TulsiwadiZopadpatti,BhanjibhaiRathodMarg,MataMandir,Tardeo",111,"Tulsiwadi","Maharashtra",16,"Mumbai","Mumbai",19.0167,72.85,
87,"D ",400034,"MilanBuilding,TardeoRd,AcMarket,Tardeo",111,"Tulsiwadi","Maharashtra",16,"Mumbai","Mumbai",19.0167,72.85,
88,"E ",400011,"BmcChawlNo1,Kamthipura,9ThGulli,Kamthipura,Byculla",45,"Agripada","Maharashtra",16,"Mumbai","Mumbai",18.9833,72.8333,
89,"E ",400011,"MerchantBuilding,BadluRangariStreet,AshaDhan,Byculla",45,"Agripada","Maharashtra",16,"Mumbai","Mumbai",18.9833,72.8333,
90,"E ",400012,"AWing,ChawlNo4,KhusnumaApartment/BitChawl,MARoad/MSAnsariMarg,Kalapani,Agripada",54,"Parel Rly Work Shop","Maharashtra",16,"Mumbai",,19,72.8333,
91,"E ",400012,"BuildingNo22,BitChawl,MadhavraoGanganMarg,NearFancyMarket,Agripada",54,"Parel Rly Work Shop","Maharashtra",16,"Mumbai",,19,72.8333,
92,"E ",400012,"Building,NesbitHall,NesbitRoad,OppSbi,Mazgaon",54,"Parel Rly Work Shop","Maharashtra",16,"Mumbai",,19,72.8333,
93,"E ",400012,"Chawl1,666Tenament,BJMarg,JocobCircle,Byculla",54,"Parel Rly Work Shop","Maharashtra",16,"Mumbai",,19,72.8333,
94,"E ",400012,"Chawl42,HawabaiChawl,NMJoshiMarg,ArthurRoadNaka,Chinchpokli",54,"Parel Rly Work Shop","Maharashtra",16,"Mumbai",,19,72.8333,
95,"E ",400012,"ChawlNo14,TransistCamp,TankPakadiStreet,Mominpura",54,"Parel Rly Work Shop","Maharashtra",16,"Mumbai",,19,72.8333,
96,"E ",400012,"ChawlNo21,22,Kamathipura7ThLaneChawlNo21,Kamathipura7ThLane,Kamathipura",54,"Parel Rly Work Shop","Maharashtra",16,"Mumbai",,19,72.8333,
97,"E ",400012,"Chawl,KasamHathiChawl,Kamathipura1StLane,Kamathipura",54,"Parel Rly Work Shop","Maharashtra",16,"Mumbai",,19,72.8333,
98,"E ",400012,"NayeeChawl,3RdGhelabhaiLane,Mandapura",54,"Parel Rly Work Shop","Maharashtra",16,"Mumbai",,19,72.8333,
99,"E ",400012,"SanaHeight,BarkatAliViraniMarg,Nagpada",54,"Parel Rly Work Shop","Maharashtra",16,"Mumbai",,19,72.8333,
100,"E ",400013,"Building,BycullaPoliceLineQuarters,HansrajLane,BycullaPoliceStation,BycullaEast",56,"Delisle Road","Maharashtra",16,"Mumbai","Mumbai",18.9448,72.8524,
101,"E ",400013,"Building,FireBrigadeOffice,Byculla,ShaikhHafizuddinMarg,BehindBmcEWardOffice,Byculla",56,"Delisle Road","Maharashtra",16,"Mumbai","Mumbai",18.9448,72.8524,
102,"E ",400013,"Building,MustafaManzil,PeerkhanStreet,OppBmcSchool,Nagpada",56,"Delisle Road","Maharashtra",16,"Mumbai","Mumbai",18.9448,72.8524,
103,"E ",400013,"Building,NirmalPark,EWing,DrBARoad,VikkyHotel,BycullaEast",56,"Delisle Road","Maharashtra",16,"Mumbai","Mumbai",18.9448,72.8524,
104,"E ",400013,"Building,PeerBhaiMension,MorlandRoad,SaharaMedicalStoreHalimManjil,Byculla",56,"Delisle Road","Maharashtra",16,"Mumbai","Mumbai",18.9448,72.8524,
105,"E ",400013,"ChawlNo1,BitChawlAgripada,MejhrajSethiMarg,JhulaMaidan,Byculla",56,"Delisle Road","Maharashtra",16,"Mumbai","Mumbai",18.9448,72.8524,
106,"E ",400013,"Chawl,Bldg21/23,7ThGully,Kamthipura,Byculla",56,"Delisle Road","Maharashtra",16,"Mumbai","Mumbai",18.9448,72.8524,
107,"E ",400013,"IslamiaHousingSociety,NavrojMinar,ClareRoad,SaintAgnesHighSchool,Byculla",56,"Delisle Road","Maharashtra",16,"Mumbai","Mumbai",18.9448,72.8524,
108,"E ",400013,"Slum,LakdiBandervmotorLineDaruKhana,MotorLineDaruKhana,UdipiHotel,Mazgaon",56,"Delisle Road","Maharashtra",16,"Mumbai","Mumbai",18.9448,72.8524,
109,"E ",400014,"BismillaArcade,SankhaliStree,HudaMasjid,Byculla",57,"Naigaon (Mumbai)","Maharashtra",16,"Mumbai","Mumbai",19.0201,72.8381,
110,"E ",400014,"Chawl,RasulJivaCompound,RasulJivaCompound,KkRoad7ThRasta,JacobCircle,Byculla",57,"Naigaon (Mumbai)","Maharashtra",16,"Mumbai","Mumbai",19.0201,72.8381,
111,"E ",400014,"PatraChawl,PatraChawl,BJMarg,Byculla",57,"Naigaon (Mumbai)","Maharashtra",16,"Mumbai","Mumbai",19.0201,72.8381,
112,"E ",400015,"BBlock,BmcBldg,ChandramaniBuddhviharMarg,TwoTank,Kamathipura",60,"Sewri","Maharashtra",16,"Mumbai","Mumbai",19,72.85,
113,"E ",400015,"Building,BmcBldgNo5,BJMarg,Kanjarwada,Byculla",60,"Sewri","Maharashtra",16,"Mumbai","Mumbai",19,72.85,
114,"E ",400015,"Building,HusainiMansion,ShirinManzil,StMerryRoad,Tadwadi,Mazgaon",60,"Sewri","Maharashtra",16,"Mumbai","Mumbai",19,72.85,
115,"E ",400015,"Building,ShakkarwalaBldg,BabanGully,SankhaliStreet,Madanpura,Agripada",60,"Sewri","Maharashtra",16,"Mumbai","Mumbai",19,72.85,
116,"E ",400015,"Building,ShirinbhaiChawl,MorlandRoad,MumbaiCentral",60,"Sewri","Maharashtra",16,"Mumbai","Mumbai",19,72.85,
117,"E ",400015,"KermaniBuilding(AnandEstate),NMJoshiMarg,ArthurRoadNaka,Chinchpokli",60,"Sewri","Maharashtra",16,"Mumbai","Mumbai",19,72.85,
118,"E ",400015,"PrabhatBuilding,RBChandorkarMarg,AgripadaPoliceStaion,Agripada",60,"Sewri","Maharashtra",16,"Mumbai","Mumbai",19,72.85,
119,"E ",400015,"Slum,SanjayGandhiNagar,JJMarg,RailwayCompound,Mazgaon",60,"Sewri","Maharashtra",16,"Mumbai","Mumbai",19,72.85,
120,"E ",400015,"Tulsiwadi,TulsiwadiChawl,GunpowderRoad,Mazgaon",60,"Sewri","Maharashtra",16,"Mumbai","Mumbai",19,72.85,
121,"E ",400018,"109AcharwalaBuilding,UndriyaStreetNagpada,Nagpada,Byculla",68,"Worli","Maharashtra",16,"Mumbai","Mumbai",19.0167,72.8167,
122,"E ",400018,"BageRabbaniAppartment,AWing,MegrajSethiMarg,BadliwalaCharitableDispensary,Byculla",68,"Worli","Maharashtra",16,"Mumbai","Mumbai",19.0167,72.8167,
123,"E ",400018,"BageUsmanHeights,SheikhHafizuddinMarg,BehindEWard,Byculla",68,"Worli","Maharashtra",16,"Mumbai","Mumbai",19.0167,72.8167,
124,"E ",400018,"Bambkhana,MARoad,Kamathipura(EyeHospital),Kamathipura",68,"Worli","Maharashtra",16,"Mumbai","Mumbai",19.0167,72.8167,
125,"E ",400018,"Building,2Nd&4ThLane,Kamathipura,Kamathipura",68,"Worli","Maharashtra",16,"Mumbai","Mumbai",19.0167,72.8167,
126,"E ",400018,"Building,ArhamTowerChinchpokli,DattaramLadMarg,ChintamaniGanpatiUtsav,Chinchpokli",68,"Worli","Maharashtra",16,"Mumbai","Mumbai",19.0167,72.8167,
127,"E ",400018,"Building,BelvedarHillMazgaon,ShivdasChapsiMarg,NextStPeterSchool,Mazgaon",68,"Worli","Maharashtra",16,"Mumbai","Mumbai",19.0167,72.8167,
128,"E ",400018,"Building,DagdiChawal,BJMarg,DagadiChawl",68,"Worli","Maharashtra",16,"Mumbai","Mumbai",19.0167,72.8167,
129,"E ",400018,"ChavhanMension,TankPakadi,TankPakadiRoad,OppositeKhataoMill,Byculla",68,"Worli","Maharashtra",16,"Mumbai","Mumbai",19.0167,72.8167,
130,"E ",400018,"Chawl,AksaManzil,MARoadMadanpura,GhoshBazar,Byculla",68,"Worli","Maharashtra",16,"Mumbai","Mumbai",19.0167,72.8167,
131,"E ",400018,"Chawl,MarutiGully,NMJoshiMarg,BycullaStn,Buyculla",68,"Worli","Maharashtra",16,"Mumbai","Mumbai",19.0167,72.8167,
132,"E ",400018,"HerambDarashanBuilding,DpWadiRoad,KapreshwarMandir,Byculla",68,"Worli","Maharashtra",16,"Mumbai","Mumbai",19.0167,72.8167,
133,"E ",400025,"Building,5/DMhada,RamBhauBhogleMarg,BatliboyCompoundGround,Ghodapdeo",82,"New Prabhadevi Road","Maharashtra",16,"Mumbai","Mumbai",19.0164,72.8294,
134,"E ",400025,"Building,DoodhWalaComplexNearBombayCentralBusDepotFWing,BelasisRoad,StDepot,Byculla",82,"New Prabhadevi Road","Maharashtra",16,"Mumbai","Mumbai",19.0164,72.8294,
135,"E ",400025,"Building,NayaNagarAWing,MARoad,BestQuarters,Byculla",82,"New Prabhadevi Road","Maharashtra",16,"Mumbai","Mumbai",19.0164,72.8294,
136,"E ",400031,"Building,AnwarshetKiChawl,BadluRangariStreet,SalvationArmy,Byculla",100,"Wadala","Maharashtra",16,"Mumbai","Mumbai",19.0167,72.85,
137,"E ",400031,"Building,HussainPatelMarg,MunnaSethCompound,BelvederRoad,BhandarTekdi,Mazgaon",100,"Wadala","Maharashtra",16,"Mumbai","Mumbai",19.0167,72.85,
138,"E ",400031,"Chawl1,PanchKhateChawl,BJMarg,Byculla",100,"Wadala","Maharashtra",16,"Mumbai","Mumbai",19.0167,72.85,
139,"E ",400031,"Chawl1,TransitCamp,TankPakhadiStreet,Kalapani,Mominpura",100,"Wadala","Maharashtra",16,"Mumbai","Mumbai",19.0167,72.85,
140,"E ",400033,"KarimBuilding,3RdGhelabhaiLane,Madanpura",110,"L B S N E collage","Maharashtra",16,"Mumbai","Mumbai",19.0167,72.85,
141,"E ",400033,"TakdeerNiwas,TakdeerNiwas,BrahmadevKhotMarg,Mazgaon",110,"L B S N E collage","Maharashtra",16,"Mumbai","Mumbai",19.0167,72.85,
142,"FN",400011,"LalMati,KismatNagar,Wadala",45,"Agripada","Maharashtra",16,"Mumbai","Mumbai",18.9833,72.8333,
143,"FN",400011,"SaiBabaMandir,VijayNagar,AntopHill,WadalaC/OPandit(RentedHouse),WadalaEast",45,"Agripada","Maharashtra",16,"Mumbai","Mumbai",18.9833,72.8333,
144,"FN",400013,"BhaiyasahebNagar,90FeetRoad,BarkatAliNaka,Wadala,BarkatAliNaka,WadalaEast",56,"Delisle Road","Maharashtra",16,"Mumbai","Mumbai",18.9448,72.8524,
145,"FN",400013,"BharatiyaKamalaNagar,SPRoad,NearKarbalaMsjid,AntopHill,WadalaEast,SPRoad,WadalaEast",56,"Delisle Road","Maharashtra",16,"Mumbai","Mumbai",18.9448,72.8524,
146,"FN",400013,"KrushnaKunj,PlotNo100,BARoad,OppManavsevaSangh,BARoad,SionEast",56,"Delisle Road","Maharashtra",16,"Mumbai","Mumbai",18.9448,72.8524,
147,"FN",400013,"SangamNagar,SPRoad,AntopHill,WadalaEast,SPRoad,WadalaEast",56,"Delisle Road","Maharashtra",16,"Mumbai","Mumbai",18.9448,72.8524,
148,"FN",400018,"BldgNo9,PunjabiCamp,NearHariMandir,SionKoliwada",68,"Worli","Maharashtra",16,"Mumbai","Mumbai",19.0167,72.8167,
149,"FN",400018,"Bpt44No,MbptNewColony,Wadala(E)",68,"Worli","Maharashtra",16,"Mumbai","Mumbai",19.0167,72.8167,
150,"FN",400018,"RajeShivajiVidyalayCanteen,ShivajiSchoolCanteen,HinduColony,IesRajeShivajiVidyalayCanteen,Dadar",68,"Worli","Maharashtra",16,"Mumbai","Mumbai",19.0167,72.8167,
151,"FN",400018,"SainathHotel,NrFishMarket,Wadala(W)",68,"Worli","Maharashtra",16,"Mumbai","Mumbai",19.0167,72.8167,
152,"FN",400018,"ShyamalBuilding,LotlikarLane,Matunga",68,"Worli","Maharashtra",16,"Mumbai","Mumbai",19.0167,72.8167,
153,"FN",400025,"AWing,Bhangiri,ManakikarMarg,NrChunabhattiPhatak,ChunabhattiWest",82,"New Prabhadevi Road","Maharashtra",16,"Mumbai","Mumbai",19.0164,72.8294,
154,"FN",400025,"DostiBlossom,DostiBlossom,AntopHill,WadalaE",82,"New Prabhadevi Road","Maharashtra",16,"Mumbai","Mumbai",19.0164,72.8294,
155,"FN",400025,"HimmatNagarSpRoadNearMadinaMasjidWadalaEastMumbai37,SpRoad,WadalaEast",82,"New Prabhadevi Road","Maharashtra",16,"Mumbai","Mumbai",19.0164,72.8294,
156,"FN",400025,"JainSociety,RoodNo18,ManharNiwas,SionWest",82,"New Prabhadevi Road","Maharashtra",16,"Mumbai","Mumbai",19.0164,72.8294,
157,"FN",400025,"ShivajiNagarCHS,BhauDajiRd,SionWest",82,"New Prabhadevi Road","Maharashtra",16,"Mumbai","Mumbai",19.0164,72.8294,
158,"FN",400025,"SiddharthNagarKorabaMithagar,Wadala",82,"New Prabhadevi Road","Maharashtra",16,"Mumbai","Mumbai",19.0164,72.8294,
159,"FN",400025,"SushrushaBldg,MbptHospital,Wadala(E)",82,"New Prabhadevi Road","Maharashtra",16,"Mumbai","Mumbai",19.0164,72.8294,
160,"FN",400025,"VaibhavBldg,NrWadalaBridge,Wadala(E)",82,"New Prabhadevi Road","Maharashtra",16,"Mumbai","Mumbai",19.0164,72.8294,
161,"FN",400030,"ABlock,OldPoliceLine,MatungaCentral,MatungaCentral",96,"Worli Police Camp","Maharashtra",16,"Mumbai","Mumbai",19.0167,72.85,
162,"FN",400030,"BldgNoD7,MhadaColony,NearGtbMonorailStation,WadalaEast",96,"Worli Police Camp","Maharashtra",16,"Mumbai","Mumbai",19.0167,72.85,
163,"FN",400030,"BptGateNo4,NearNuraniMasjid,ChindhiGully,NearNuraniMasjid,Wadala",96,"Worli Police Camp","Maharashtra",16,"Mumbai","Mumbai",19.0167,72.85,
164,"FN",400030,"BptNewColony,MbptHospital,WadalaEast",96,"Worli Police Camp","Maharashtra",16,"Mumbai","Mumbai",19.0167,72.85,
165,"FN",400030,"BuildingNo200,Sector6,CgsColony,KaneNagarPoliceStation,Wadala",96,"Worli Police Camp","Maharashtra",16,"Mumbai","Mumbai",19.0167,72.85,
166,"FN",400030,"NewMhadaColony,SionKoliwada,NearShuklaHotel,Sion",96,"Worli Police Camp","Maharashtra",16,"Mumbai","Mumbai",19.0167,72.85,
167,"FN",400030,"OmkarChawl,GaneshNagar,WadalaEast",96,"Worli Police Camp","Maharashtra",16,"Mumbai","Mumbai",19.0167,72.85,
168,"FS",400013,"MamtaBuilding,JerBaiWadiaRoad,NearBhoiwada,Parel",56,"Delisle Road","Maharashtra",16,"Mumbai","Mumbai",18.9448,72.8524,
169,"FS",400013,"ShramikNiwas,SaneGurujiMarg,NearVikrantSadanBuilding,Chinchpokali",56,"Delisle Road","Maharashtra",16,"Mumbai","Mumbai",18.9448,72.8524,
170,"FS",400018,"AadharBuilding,SaneGurujiMarg,NearVikrantSadanBuilding,Chinchpokali",68,"Worli","Maharashtra",16,"Mumbai","Mumbai",19.0167,72.8167,
171,"FS",400018,"BdlbColony,ShrikantHadkarMarg,Kalachowky",68,"Worli","Maharashtra",16,"Mumbai","Mumbai",19.0167,72.8167,
172,"FS",400030,"AWing,OfficersQuarters,RAKidwaiRoad,CharRast,Sewree",96,"Worli Police Camp","Maharashtra",16,"Mumbai","Mumbai",19.0167,72.85,
173,"FS",400030,"AshwamedhCHS,DGMahajaniRoad,Sewree",96,"Worli Police Camp","Maharashtra",16,"Mumbai","Mumbai",19.0167,72.85,
174,"FS",400030,"BWing,AhuraCHS,DrSSRoaRoad,Parel",96,"Worli Police Camp","Maharashtra",16,"Mumbai","Mumbai",19.0167,72.85,
175,"FS",400030,"BahareMadinaBuilding,BahareMadina,Wadala,NearRAKidwaiRoadPoliceStation,Sewree",96,"Worli Police Camp","Maharashtra",16,"Mumbai","Mumbai",19.0167,72.85,
176,"FS",400030,"BestQuatersKBuilding,BestQuaters,VShantaramRoad,GurudamKripaHousingSociety,Parel",96,"Worli Police Camp","Maharashtra",16,"Mumbai","Mumbai",19.0167,72.85,
177,"FS",400030,"BholaMasterChawl1/4,BholaMasterChawl,SewreeCrossRoad,NearRailwayLineGateNo6,Wadala",96,"Worli Police Camp","Maharashtra",16,"Mumbai","Mumbai",19.0167,72.85,
178,"FS",400030,"BitBuildingNo2&3,BitChawl,VitthalChavanMarg,NextToDamodarHall,Parel",96,"Worli Police Camp","Maharashtra",16,"Mumbai","Mumbai",19.0167,72.85,
179,"FS",400030,"BldNo273RailwayColony,RailwayColony,RailwayColonyRoad,NearCentralRailwayLocomotiveWorkshop,Parel",96,"Worli Police Camp","Maharashtra",16,"Mumbai","Mumbai",19.0167,72.85,
180,"FS",400030,"BMCChawlNo104,RahatNagar,RahatNagar,SewreeCrossRoad,BehindDrGada'SClinic,Wadala",96,"Worli Police Camp","Maharashtra",16,"Mumbai","Mumbai",19.0167,72.85,
181,"FS",400030,"BMCChawlNo110,BMCChawl,Wadala",96,"Worli Police Camp","Maharashtra",16,"Mumbai","Mumbai",19.0167,72.85,
182,"FS",400030,"Building1,NaigaonPoliceBuildingHeadquarters,Naigaon,Dadar",96,"Worli Police Camp","Maharashtra",16,"Mumbai","Mumbai",19.0167,72.85,
183,"FS",400030,"IraniChawlGateNo6,IraniChawlNo8,SewreeCrossRoad,OppDrKhatriClinic,Sewree",96,"Worli Police Camp","Maharashtra",16,"Mumbai","Mumbai",19.0167,72.85,
184,"FS",400030,"JanabaiBuilding,AbovrSadhnaHotel,DadarEast,Dadar(East),Dadar",96,"Worli Police Camp","Maharashtra",16,"Mumbai","Mumbai",19.0167,72.85,
185,"FS",400030,"MaharashtraHousingBoard,DyaneshwarNagar,RAKidwaiRoad,Sewree",96,"Worli Police Camp","Maharashtra",16,"Mumbai","Mumbai",19.0167,72.85,
186,"FS",400030,"MonarchGarden,RAKidwaiRoad,Sewree",96,"Worli Police Camp","Maharashtra",16,"Mumbai","Mumbai",19.0167,72.85,
187,"FS",400030,"MunChawlNo103,GateNo6,MunicipalChawl,SewreeCrossRoad,NearRailwyGateNo6,Wadala",96,"Worli Police Camp","Maharashtra",16,"Mumbai","Mumbai",19.0167,72.85,
188,"FS",400030,"Na,DyaneshwarNagar,RAKidwaiRoad,OppDyaneshwarSchool,Sewree",96,"Worli Police Camp","Maharashtra",16,"Mumbai","Mumbai",19.0167,72.85,
189,"FS",400030,"PathanMasjidChawl,SewreeCrossRoad,PathanMasjid,Sewree",96,"Worli Police Camp","Maharashtra",16,"Mumbai","Mumbai",19.0167,72.85,
190,"FS",400030,"SarifaManzil,SewreeCrossRoad,BehindDyaneshwarVidyalay,Sewree",96,"Worli Police Camp","Maharashtra",16,"Mumbai","Mumbai",19.0167,72.85,
191,"FS",400030,"Suntower,GDAmbekarRoad,Bhoiwada,Parel",96,"Worli Police Camp","Maharashtra",16,"Mumbai","Mumbai",19.0167,72.85,
192,"FS",400030,"TataMillsCHS,Parel",96,"Worli Police Camp","Maharashtra",16,"Mumbai","Mumbai",19.0167,72.85,
193,"FS",400030,"TransitCampKalewadi,RatnasindhuCHSTransitCamp,GDAmbekarRoad,NearMonorailPollNo11,Kalewadi",96,"Worli Police Camp","Maharashtra",16,"Mumbai","Mumbai",19.0167,72.85,
194,"FS",400030,"WeillingtonHouse,WellingtonHouse,Parel,NearSupariBaug,Parel",96,"Worli Police Camp","Maharashtra",16,"Mumbai","Mumbai",19.0167,72.85,
195,"GN",400011,"DrBaligaNagarJasiminMillRoadDharavi,JasminMillRoad,Dharavi",45,"Agripada","Maharashtra",16,"Mumbai","Mumbai",18.9833,72.8333,
196,"GN",400014,"SocialNagar,MarrianmaMandir,GausiyaMasjid,Dharavi",57,"Naigaon (Mumbai)","Maharashtra",16,"Mumbai","Mumbai",19.0201,72.8381,
197,"GN",400019,"MadinaNagar,60FtRoad,Dharavi",70,"Matunga","Maharashtra",16,"Mumbai","Mumbai",19.0333,72.85,
198,"GN",400022,"DinkarApartment,BehindSuryavanshiHall,DadarWest",76,"Sion","Maharashtra",16,"Mumbai","Mumbai",19.0333,72.85,
199,"GN",400022,"JantaSociety,DharaviMainRoad,AbhudayaBank,Dharavi",76,"Sion","Maharashtra",16,"Mumbai","Mumbai",19.0333,72.85,
200,"GN",400022,"JasminMillRoad,GasitaRamFactory,Dharavi",76,"Sion","Maharashtra",16,"Mumbai","Mumbai",19.0333,72.85,
201,"GN",400022,"TavadeBuilding,KVChitalePath,Dadar",76,"Sion","Maharashtra",16,"Mumbai","Mumbai",19.0333,72.85,
202,"GN",400022,"VaibhavApartment,DharaviMainRoad,OppositeAbhudayaBank,Dharavi",76,"Sion","Maharashtra",16,"Mumbai","Mumbai",19.0333,72.85,
203,"GN",400031,"Emerald,Mahim,Mahim",100,"Wadala","Maharashtra",16,"Mumbai","Mumbai",19.0167,72.85,
204,"GN",400037,"DimandBldg,JasminMillRoad,GasitaRamFactory,Dharavi",114,"Antop Hill","Maharashtra",16,"Mumbai","Mumbai",19.0167,72.85,
205,"GN",400037,"MuslimNagar,Dharavi",114,"Antop Hill","Maharashtra",16,"Mumbai","Mumbai",19.0167,72.85,
206,"GN",400037,"ShaktiChawlMukundNagar,Dharavi",114,"Antop Hill","Maharashtra",16,"Mumbai","Mumbai",19.0167,72.85,
207,"GN",400037,"SoubhagyaApartment,SKBoleRoad,LaxmiNarayanMandir,DadarWest",114,"Antop Hill","Maharashtra",16,"Mumbai","Mumbai",19.0167,72.85,
208,"GN",400037,"UniqueHights,OppCanosaHighSchool,Mahim",114,"Antop Hill","Maharashtra",16,"Mumbai","Mumbai",19.0167,72.85,
209,"GS",400008,"13,CenturyQuartets,PBMarg,MahindraTowers,Worli",8,"Kamathipura","Maharashtra",16,"Mumbai","Mumbai",18.6291,72.8919,
210,"GS",400008,"AchanakKridaMandal,WorliKoliwada,KesariNathBuvaBhayMarg,WorliVillage",8,"Kamathipura","Maharashtra",16,"Mumbai","Mumbai",18.6291,72.8919,
211,"GS",400008,"AdarshNagar,CenturyBazar,WorliVillage",8,"Kamathipura","Maharashtra",16,"Mumbai","Mumbai",18.6291,72.8919,
212,"GS",400008,"GaneshNagar,CCommittee,CCommittee,JRBorichaMarg,NearArthurRoadJail,Saatrasta",8,"Kamathipura","Maharashtra",16,"Mumbai","Mumbai",18.6291,72.8919,
213,"GS",400010,"NearNehruPlanitorium,BhaiyasahebAmbedkarNagar,ABRoad,NehruPlanitorium,Worli",10,"Dockyard Road","Maharashtra",16,"Mumbai","Mumbai",18.3667,72.9333,
214,"GS",400011,"GateNumber5,BadaDhobighat,Saatrasta,NearMahalaxmiStation,Saatrasta",45,"Agripada","Maharashtra",16,"Mumbai","Mumbai",18.9833,72.8333,
215,"GS",400011,"ShivajiNagar,SasmiraMarg,SasmiraCollege,Worli",45,"Agripada","Maharashtra",16,"Mumbai","Mumbai",18.9833,72.8333,
216,"GS",400011,"SuryadarshanBuilding,NearJijamataNagar,Worli,EMosesRoad,JijamataNagr,Worli,Worli",45,"Agripada","Maharashtra",16,"Mumbai","Mumbai",18.9833,72.8333,
217,"GS",400011,"VarasLane,WorliKoliwada,KesariNathBuvaBhayMarg,WorliVillage",45,"Agripada","Maharashtra",16,"Mumbai","Mumbai",18.9833,72.8333,
218,"GS",400019,"BddChawl,111Worli,SsAmrutwarMarg,Worli,Worli",70,"Matunga","Maharashtra",16,"Mumbai","Mumbai",19.0333,72.85,
219,"GS",400022,"JariMariSadan,WorliHillRoad,Worli",76,"Sion","Maharashtra",16,"Mumbai","Mumbai",19.0333,72.85,
220,"GS",400031,"CWing,Laxmipooja,LaxmipoojaSociety,JRBorichaMarg,NearArthurRoadJail,",100,"Wadala","Maharashtra",16,"Mumbai","Mumbai",19.0167,72.85,
221,"GS",400037,"16BDD,BDD,GmBhosleMarg,Worli",114,"Antop Hill","Maharashtra",16,"Mumbai","Mumbai",19.0167,72.85,
222,"GS",400037,"18BDD,BDD,NmJoshiMarg,NMJoshiMarg,NearNmJoshiMarg,LowerParel",114,"Antop Hill","Maharashtra",16,"Mumbai","Mumbai",19.0167,72.85,
223,"GS",400037,"1BDD,BDD,GmBhosleMarg,Worli",114,"Antop Hill","Maharashtra",16,"Mumbai","Mumbai",19.0167,72.85,
224,"GS",400037,"40BDD,BDD,GmBhosleMarg,Worli",114,"Antop Hill","Maharashtra",16,"Mumbai","Mumbai",19.0167,72.85,
225,"GS",400037,"45Wpc,Wpc,SirPochkhanwalaRoad,Worli",114,"Antop Hill","Maharashtra",16,"Mumbai","Mumbai",19.0167,72.85,
226,"GS",400037,"AWing,LokhandwalaResidency,LokhandwalaResidency,LnPappanMarg,NearFourSeasonsHotel,Worli",114,"Antop Hill","Maharashtra",16,"Mumbai","Mumbai",19.0167,72.85,
227,"GS",400037,"BDD20,BDD,NMJoshiMarg,LowerParel,NearNmJoshiMargPoliceStation",114,"Antop Hill","Maharashtra",16,"Mumbai","Mumbai",19.0167,72.85,
228,"GS",400037,"CenturyQuartets,PBMarg,MahindraTowers,Worli",114,"Antop Hill","Maharashtra",16,"Mumbai","Mumbai",19.0167,72.85,
229,"GS",400037,"KombdiGalli,SiddharthNagar,DrABRoad,PoddarHospital,Worli",114,"Antop Hill","Maharashtra",16,"Mumbai","Mumbai",19.0167,72.85,
230,"GS",400037,"TimesNetworkBuilding,KamalaMillCampusLowerParel,PbMarg,LowerParel",114,"Antop Hill","Maharashtra",16,"Mumbai","Mumbai",19.0167,72.85,
231,"GS",400047,"ArunPrakashSangh,KesariNathBuvaBhayMarg,WorliVillage",,,,,,,,,
232,"GS",400047,"Bdd,NmJoshiMarg,NearNmJoshiMargPoliceStation,LowerParel",,,,,,,,,
233,"GS",400047,"KrantiLane,ArunPrakashSangh,KesariNathBuvaBhayMarg,WorliVillage",,,,,,,,,
234,"GS",400049,"AnandNagar,JijamataNagr,Worli,EMosesRoad,JijamataNagr,Worli,Worli",121,"Juhu","Maharashtra",16,"Mumbai","Mumbai",19.1026,72.8242,
235,"GS",400049,"DCommittee,GaneshNagar,JrBorichaMarg,DhobighatBmcSchool,GaneshNagar,BehindArthurRoadJail",121,"Juhu","Maharashtra",16,"Mumbai","Mumbai",19.1026,72.8242,
236,"GS",400049,"9,DevichaOota,BndBigHanumanMandir,JantaColony,DevichaOota,JanataColony,NrBigHanumanMandir,KesariNathBuvaBhayMarg,WorliVillage,JanataColony",121,"Juhu","Maharashtra",16,"Mumbai","Mumbai",19.1026,72.8242,
237,"GS",400049,"NrBazarGally,NrBazarGally,100/D,KesariNathBuvaBhayMarg,WorliVillage",121,"Juhu","Maharashtra",16,"Mumbai","Mumbai",19.1026,72.8242,
238,"GS",400049,"VishwajyotiBuilding,SenapatiBapatMarg,Elphinston",121,"Juhu","Maharashtra",16,"Mumbai","Mumbai",19.1026,72.8242,
239,"GS",400053,"BldgNo41,BldgNo41,AdarshNagar,KesariNathBuvaBhayMarg,WorliVillage,AdarshNagar",132,"Azad Nagar (Mumbai)","Maharashtra",16,"Mumbai","Mumbai",19.1309,72.8526,
240,"GS",400053,"BldgNo6,BldgNo6,AdarshNagar,KesariNathBuvaBhayMarg,WorliVillage,AdarshNagar",132,"Azad Nagar (Mumbai)","Maharashtra",16,"Mumbai","Mumbai",19.1309,72.8526,
241,"GS",400053,"KalikhanHouse,DhramrajBhanduCottage,KesariNathBuvaBhayMarg,WorliVillage",132,"Azad Nagar (Mumbai)","Maharashtra",16,"Mumbai","Mumbai",19.1309,72.8526,
242,"GS",400053,"NavneetChowkJC,NavneetChowk,JanataColony,KesariNathBuvaBhayMarg,WorliVillage,JanataColony",132,"Azad Nagar (Mumbai)","Maharashtra",16,"Mumbai","Mumbai",19.1309,72.8526,
243,"GS",400053,"NavtarunRahivashiSevaSangh,KesariNathBuvaBhayMarg,WorliVillage",132,"Azad Nagar (Mumbai)","Maharashtra",16,"Mumbai","Mumbai",19.1309,72.8526,
244,"GS",400053,"NrBazarLane,NearFishMarket,KesariNathBuvaBhayMarg,WorliVillage",132,"Azad Nagar (Mumbai)","Maharashtra",16,"Mumbai","Mumbai",19.1309,72.8526,
245,"GS",400053,"PuravHouse,OldPrabhadeviRoad,Prabhadevi",132,"Azad Nagar (Mumbai)","Maharashtra",16,"Mumbai","Mumbai",19.1309,72.8526,
246,"GS",400053,"ShramikEktaBuilding,JRBorichaMarg,BehindArthurRoadJail,JRBorichaMarg",132,"Azad Nagar (Mumbai)","Maharashtra",16,"Mumbai","Mumbai",19.1309,72.8526,
247,"GS",400053,"ShreeramLane,ShreeramLane,40CMadkarHouse,KesariNathBuvaBhayMarg,WorliVillage",132,"Azad Nagar (Mumbai)","Maharashtra",16,"Mumbai","Mumbai",19.1309,72.8526,
248,"GS",400053,"SiddhiPrabhaBuilding,SayaniRoad,OppositeRavindraNatyaMandir,Prabhadevi",132,"Azad Nagar (Mumbai)","Maharashtra",16,"Mumbai","Mumbai",19.1309,72.8526,
249,"GS",400056,"Bdd12,NMJoshiMarg,LowerParel",138,"Vileparle(W)","Maharashtra",16,"Mumbai","Mumbai",18.0704,75.7484,
250,"GS",400056,"BehindBptQtr,NrSaiBabaMandir,BehindBptQuarters,KesariNathBuvaBhayMarg,WorliVillage,JanataColony",138,"Vileparle(W)","Maharashtra",16,"Mumbai","Mumbai",18.0704,75.7484,
251,"GS",400056,"HirashethChawal,WorliKoliwada,KesariNathBuvaBhayMarg,WorliVillage",138,"Vileparle(W)","Maharashtra",16,"Mumbai","Mumbai",18.0704,75.7484,
252,"GS",400056,"JijamataNagr,Worli,EMosesRoad,JijamataNagr,Worli,Worli",138,"Vileparle(W)","Maharashtra",16,"Mumbai","Mumbai",18.0704,75.7484,
253,"GS",400056,"KamgarNagar2,NewPrabhadeviRoad,KamgarNagar2,Prabhadevi",138,"Vileparle(W)","Maharashtra",16,"Mumbai","Mumbai",18.0704,75.7484,
254,"GS",400056,"KatkarHouse,KesariNathBuvaBhayMarg,WorliVillage",138,"Vileparle(W)","Maharashtra",16,"Mumbai","Mumbai",18.0704,75.7484,
255,"GS",400056,"MataRamabaiAmbedkarNagar,JijamataNagr,Worli,EMosesRoad,JijamataNagr,Worli,Worli",138,"Vileparle(W)","Maharashtra",16,"Mumbai","Mumbai",18.0704,75.7484,
256,"GS",400056,"UtkarshSociety,JAMarg,OffSayaniRoad,Prabhadevi",138,"Vileparle(W)","Maharashtra",16,"Mumbai","Mumbai",18.0704,75.7484,
257,"GS",400056,"VeeraHouse,ElphinstoneRoad,Elphinstone",138,"Vileparle(W)","Maharashtra",16,"Mumbai","Mumbai",18.0704,75.7484,
258,"GS",400058,"AmarSandeshJantaColony,AmarSandeshJanataColony,KesariNathBuvaBhayMarg,WorliVillage,JanataColony",144,"Andheri Rlwy Station","Maharashtra",16,"Mumbai","Mumbai",19.0111,73.8747,
259,"GS",400058,"BldgNo25,KesariNathBuvaBhayMarg,WorliVillage,AdarshNagar",144,"Andheri Rlwy Station","Maharashtra",16,"Mumbai","Mumbai",19.0111,73.8747,
260,"GS",400058,"BptQtr,WorliKoliwada,BptQtr,BldgNo4,KesariNathBuvaBhayMarg,WorliVillage",144,"Andheri Rlwy Station","Maharashtra",16,"Mumbai","Mumbai",19.0111,73.8747,
261,"GS",400058,"CharakBuilding,OffVeerSavarkarMarg,BesideChavanniMaidan,Prabhadevi",144,"Andheri Rlwy Station","Maharashtra",16,"Mumbai","Mumbai",19.0111,73.8747,
262,"GS",400058,"Galli1,VPNagar,Lotus,ABRoad,NsciClub,Worli",144,"Andheri Rlwy Station","Maharashtra",16,"Mumbai","Mumbai",19.0111,73.8747,
263,"GS",400058,"GontaLane,SaleHouse,KesariNathBuvaBhayMarg,WorliVillage",144,"Andheri Rlwy Station","Maharashtra",16,"Mumbai","Mumbai",19.0111,73.8747,
264,"GS",400058,"GuruDattaBandPathak,JanataColony,GuruDattaBandPathak,JanataColony,Bnd169Busstop,KesariNathBuvaBhayMarg,WorliVillage,JanataColony",144,"Andheri Rlwy Station","Maharashtra",16,"Mumbai","Mumbai",19.0111,73.8747,
265,"GS",400058,"GuruDattaBandPathak,JanataColony,KesariNathBuvaBhayMarg,WorliVillage,JanataColony",144,"Andheri Rlwy Station","Maharashtra",16,"Mumbai","Mumbai",19.0111,73.8747,
266,"GS",400058,"GuruDattaBandPathak,JanataColony,KesariNathBuvaBhayMarg,WorliVillage,JanataColony",144,"Andheri Rlwy Station","Maharashtra",16,"Mumbai","Mumbai",19.0111,73.8747,
267,"GS",400058,"JijamataNagr,Worli,EMosesRoad,JijamataNagr,Worli,Worli",144,"Andheri Rlwy Station","Maharashtra",16,"Mumbai","Mumbai",19.0111,73.8747,
268,"GS",400058,"PamanandCarsandasChawl,VeerSantajiLane,LowerParel",144,"Andheri Rlwy Station","Maharashtra",16,"Mumbai","Mumbai",19.0111,73.8747,
269,"GS",400058,"PrabhadeviSra,BuildingNo2,PrabhadeviSra,RajabhauDesaiMarg,AhujaTowers,Prabhadevi",144,"Andheri Rlwy Station","Maharashtra",16,"Mumbai","Mumbai",19.0111,73.8747,
270,"GS",400058,"SiddhivinayakBuilding,SiddhivinayakSociety,JrBorichaMarg,BehindArthurRoadJail,JRBorichaMarg",144,"Andheri Rlwy Station","Maharashtra",16,"Mumbai","Mumbai",19.0111,73.8747,
271,"GS",400058,"SiddiqueMohammadChawl,OldPrabhadeviRoad,Prabhadevi",144,"Andheri Rlwy Station","Maharashtra",16,"Mumbai","Mumbai",19.0111,73.8747,
272,"GS",400061,"AWing,LokhandwalaResidency,LokhandwalaResidency,LRPapanMarg,FourSeasonHotel,Worli",149,"Madh","Maharashtra",16,"Mumbai","Mumbai",19.15,72.8333,
273,"GS",400061,"AnandChayaSociety,TataPressLane,BesidePrabhaNagarSociety,Prabhadevi",149,"Madh","Maharashtra",16,"Mumbai","Mumbai",19.15,72.8333,
274,"GS",400061,"SaathiAasraCHS,NewPrabhadeviRoad,SaamnaPress,Prabhadevi",149,"Madh","Maharashtra",16,"Mumbai","Mumbai",19.15,72.8333,
275,"GS",400061,"SonapurLane,58H,DawareHouse,SonapurLane,KesariNathBuvaBhayMarg,WorliVillage",149,"Madh","Maharashtra",16,"Mumbai","Mumbai",19.15,72.8333,
276,"GS",400061,"TheEnclave,PrabhadeviGuestHouse,TheEnclave,AppaSahebMaratheMarg,BesideBalasahebThackerayIasAcademy,Prabhadevi",149,"Madh","Maharashtra",16,"Mumbai","Mumbai",19.15,72.8333,
277,"GS",400061,"VikasLane,WorliKoliwada,VikasLane,KesariNathBuvaBhayMarg,WorliVillage",149,"Madh","Maharashtra",16,"Mumbai","Mumbai",19.15,72.8333,
278,"GS",400102,"BddChawl101,Bdd101,BansodeMarg,NearAmbedkarSchool,Worli",233,"Jogeshwari W","Maharashtra",16,"Mumbai","JogeshwariW",19.0499,73.259,
279,"GS",400102,"BldgNo35,BldgNo35,AdarshNgr,KesariNathBuvaBhayMarg,WorliVillage,AdarshNagar",233,"Jogeshwari W","Maharashtra",16,"Mumbai","JogeshwariW",19.0499,73.259,
280,"GS",400102,"GanapatiStage,BhaiyasahebAmbedkarNagar,EMosesRoad,NehruPlanetorium,Worli",233,"Jogeshwari W","Maharashtra",16,"Mumbai","JogeshwariW",19.0499,73.259,
281,"GS",400102,"GontaLane,49I,JanaNakhwaHouse,KesariNathBuvaBhayMarg,WorliVillage",233,"Jogeshwari W","Maharashtra",16,"Mumbai","JogeshwariW",19.0499,73.259,
282,"GS",400102,"KhimjiNagji,SenapatiBapatMarg,OppositePhoenixTower,LowerParel",233,"Jogeshwari W","Maharashtra",16,"Mumbai","JogeshwariW",19.0499,73.259,
283,"GS",400102,"LadkubaiChawal,PakhariLane,Koliwada,KesariNathBuvaBhayMarg,WorliVillage",233,"Jogeshwari W","Maharashtra",16,"Mumbai","JogeshwariW",19.0499,73.259,
284,"GS",400102,"MWard,VPNagar,Lotus,ABRoad,NsciClub,Worli",233,"Jogeshwari W","Maharashtra",16,"Mumbai","JogeshwariW",19.0499,73.259,
285,"GS",400102,"Panchaganga,PanchagangaBuilding,NmJoshiMarg,OppositeBaulaWadiMasjid,LowerParel",233,"Jogeshwari W","Maharashtra",16,"Mumbai","JogeshwariW",19.0499,73.259,
286,"GS",400102,"PwdChawl,NmJoshiPoliceStation,NMJoshiMarg,DelileRoad,LowerParel,NearNMJoshiMargPoliceStation",233,"Jogeshwari W","Maharashtra",16,"Mumbai","JogeshwariW",19.0499,73.259,
287,"GS",400102,"ShivkrupaBuilding,S,BalajiPawarMarg,CurreyRoad",233,"Jogeshwari W","Maharashtra",16,"Mumbai","JogeshwariW",19.0499,73.259,
288,"GS",400102,"TexilaSociety,TwinTowersLane,Prabhadevi",233,"Jogeshwari W","Maharashtra",16,"Mumbai","JogeshwariW",19.0499,73.259,
289,"GS",400102,"VpNagar,JijamataNagr,Worli,EMosesRoad,JijamataNagr,Worli,Worli",233,"Jogeshwari W","Maharashtra",16,"Mumbai","JogeshwariW",19.0499,73.259,
290,"HE",400008,"AmrutNagar,Kherwadi,BandraEast",8,"Kamathipura","Maharashtra",16,"Mumbai","Mumbai",18.6291,72.8919,
291,"HE",400008,"B60,GovtColony,BandraEast",8,"Kamathipura","Maharashtra",16,"Mumbai","Mumbai",18.6291,72.8919,
292,"HE",400008,"ChawlNo3RajakChawl,OppGoldenBakery,BandraEast",8,"Kamathipura","Maharashtra",16,"Mumbai","Mumbai",18.6291,72.8919,
293,"HE",400008,"ChawlNo60/926,BharatNagar,BandraEast",8,"Kamathipura","Maharashtra",16,"Mumbai","Mumbai",18.6291,72.8919,
294,"HE",400008,"DayaramChawl,NewDeepakwadi,NirmalNagar,BehramChawl,KharEast",8,"Kamathipura","Maharashtra",16,"Mumbai","Mumbai",18.6291,72.8919,
295,"HE",400008,"DeepnarayanShuklaChawl,NearTabela,ChakkiKhan,SantacruzEast",8,"Kamathipura","Maharashtra",16,"Mumbai","Mumbai",18.6291,72.8919,
296,"HE",400008,"HarishChandraViajyKhotChawl,NewAgripada,AgripadaGolibar,SantacruzEast",8,"Kamathipura","Maharashtra",16,"Mumbai","Mumbai",18.6291,72.8919,
297,"HE",400008,"HingaGalli,BeharamNagar,BandraEast",8,"Kamathipura","Maharashtra",16,"Mumbai","Mumbai",18.6291,72.8919,
298,"HE",400008,"MadinaBuilding,BehramPada,BandraEast",8,"Kamathipura","Maharashtra",16,"Mumbai","Mumbai",18.6291,72.8919,
299,"HE",400008,"MilanChawl,Golibar3rdRoad,OppIndianBank,SantacruzEast",8,"Kamathipura","Maharashtra",16,"Mumbai","Mumbai",18.6291,72.8919,
300,"HE",400008,"NewNirmanChawlBuilding,AhmedZakeriaNagar,BehramPada,BandraEast",8,"Kamathipura","Maharashtra",16,"Mumbai","Mumbai",18.6291,72.8919,
301,"HE",400008,"PoonamHairCuttingSaloon,NearRuzuniaMadarsa,NearGolibar7ThRoad,KharSubway,SantacruzEast",8,"Kamathipura","Maharashtra",16,"Mumbai","Mumbai",18.6291,72.8919,
302,"HE",400008,"RamjeevanChawl,NearRamakantDairy,5ThGolibarRoad,SantacruzEast",8,"Kamathipura","Maharashtra",16,"Mumbai","Mumbai",18.6291,72.8919,
303,"HE",400008,"RaviTambolliChawl,NewAgripada,SantacruzEast",8,"Kamathipura","Maharashtra",16,"Mumbai","Mumbai",18.6291,72.8919,
304,"HE",400008,"SraPattharNagar,BharatNagr,Bkc,Bandra(E)",8,"Kamathipura","Maharashtra",16,"Mumbai","Mumbai",18.6291,72.8919,
305,"HE",400008,"YashodhanBld,Sbi,Golibar",8,"Kamathipura","Maharashtra",16,"Mumbai","Mumbai",18.6291,72.8919,
306,"HE",400010,"AbdulRasulTailorChawl,JawaharNagar,NearSansiWadi,KharEast",10,"Dockyard Road","Maharashtra",16,"Mumbai","Mumbai",18.3667,72.9333,
307,"HE",400010,"B/803/E,BaseraSoc,Bkc,BandraEast",10,"Dockyard Road","Maharashtra",16,"Mumbai","Mumbai",18.3667,72.9333,
308,"HE",400010,"GomesChawl,Golibar,SantacruzEast",10,"Dockyard Road","Maharashtra",16,"Mumbai","Mumbai",18.3667,72.9333,
309,"HE",400010,"HajiHussainChawl,MasjitRdGolibarRoad,Golibar,SantacruzEast",10,"Dockyard Road","Maharashtra",16,"Mumbai","Mumbai",18.3667,72.9333,
310,"HE",400010,"KhalilChawl,SaudiNagarGateNo-1,DowryNagar,VakolaBridge,SantacruzEast",10,"Dockyard Road","Maharashtra",16,"Mumbai","Mumbai",18.3667,72.9333,
311,"HE",400010,"KunchikorveNagar,Kalina,GalliNo2,SantacruzEast",10,"Dockyard Road","Maharashtra",16,"Mumbai","Mumbai",18.3667,72.9333,
312,"HE",400010,"MakranGalli,BehramNagar,BandraEast",10,"Dockyard Road","Maharashtra",16,"Mumbai","Mumbai",18.3667,72.9333,
313,"HE",400010,"MehboobKasaiChawl,VnDesai",10,"Dockyard Road","Maharashtra",16,"Mumbai","Mumbai",18.3667,72.9333,
314,"HE",400010,"OppMavNirmanChawl,AhmedZakeria,BandraEast",10,"Dockyard Road","Maharashtra",16,"Mumbai","Mumbai",18.3667,72.9333,
315,"HE",400011,"GajananRahivasiSangh,NewAgripada,SantacruzEast",45,"Agripada","Maharashtra",16,"Mumbai","Mumbai",18.9833,72.8333,
316,"HE",400011,"GurubakshaPunjabiChawl,JawaharNagar,SaiBabaRoad,KharEast",45,"Agripada","Maharashtra",16,"Mumbai","Mumbai",18.9833,72.8333,
317,"HE",400011,"JaiMaSharadaRahivasiSevak,DnyaneshwarNagar,Nalaside,BandraEast",45,"Agripada","Maharashtra",16,"Mumbai","Mumbai",18.9833,72.8333,
318,"HE",400011,"KalyaniNiwas,Vakola,VakolaPipeLine,BarmaBakrey,VakolaVillage",45,"Agripada","Maharashtra",16,"Mumbai","Mumbai",18.9833,72.8333,
319,"HE",400011,"KanishkaBld,CisfCamp,Kalina",45,"Agripada","Maharashtra",16,"Mumbai","Mumbai",18.9833,72.8333,
320,"HE",400011,"MWing,AiSanaBld,AiSanaBld,BeharamRoad,Beharam",45,"Agripada","Maharashtra",16,"Mumbai","Mumbai",18.9833,72.8333,
321,"HE",400011,"MoreshwarChwal,Waghriwada,Vakola,SantacruzEast",45,"Agripada","Maharashtra",16,"Mumbai","Mumbai",18.9833,72.8333,
322,"HE",400011,"NavjeevanChwal,IndiraNagar,GavdeviPipeLine,Vakola,SantacruzEast",45,"Agripada","Maharashtra",16,"Mumbai","Mumbai",18.9833,72.8333,
323,"HE",400011,"ParvezChawl,NearMohammadiMasjid,ShashriNagar,Kalina,SantacruzEast",45,"Agripada","Maharashtra",16,"Mumbai","Mumbai",18.9833,72.8333,
324,"HE",400011,"PatharNagar,BharatNagar,BkcRoad,BandraEast",45,"Agripada","Maharashtra",16,"Mumbai","Mumbai",18.9833,72.8333,
325,"HE",400011,"PatharNagar,BharatNagr,Bkc,BandraEast",45,"Agripada","Maharashtra",16,"Mumbai","Mumbai",18.9833,72.8333,
326,"HE",400011,"RazakChawl,GoldenBakery,KherwadiRoad,BandraEast",45,"Agripada","Maharashtra",16,"Mumbai","Mumbai",18.9833,72.8333,
327,"HE",400011,"SambhajiSevaMandal,JavharNagar,KharEast",45,"Agripada","Maharashtra",16,"Mumbai","Mumbai",18.9833,72.8333,
328,"HE",400011,"SankalpSiddhi,KherNagar,BandraEast",45,"Agripada","Maharashtra",16,"Mumbai","Mumbai",18.9833,72.8333,
329,"HE",400011,"ShardhaSangeet,NearShardhaSanget,BandraEast",45,"Agripada","Maharashtra",16,"Mumbai","Mumbai",18.9833,72.8333,
330,"HE",400011,"YunusMiyanChawl,Navpada,BandraEast",45,"Agripada","Maharashtra",16,"Mumbai","Mumbai",18.9833,72.8333,
331,"HE",400012,"LalabhaiChawl,BehramNagar,BandraEast",54,"Parel Rly Work Shop","Maharashtra",16,"Mumbai",,19,72.8333,
332,"HE",400016,"MadinaMasjid,Golibar,SantacruzEast",65,"Mahim E","Maharashtra",16,"Mumbai","Mumbai",19.0333,72.85,
333,"HE",400017,"BuildingNo3,AkrutiBuilding,ShashtriNagar,BandraEast",66,"Dharavi Road","Maharashtra",16,"Mumbai","Mumbai",19.05,72.8667,
334,"HE",400017,"GaribNagar,BandraEast",66,"Dharavi Road","Maharashtra",16,"Mumbai","Mumbai",19.05,72.8667,
335,"HE",400017,"NavpadaBuildingNo2,PrabhatColony,SantacruzEast",66,"Dharavi Road","Maharashtra",16,"Mumbai","Mumbai",19.05,72.8667,
336,"HE",400017,"PlotNo8,BharatNagar,BandraEast",66,"Dharavi Road","Maharashtra",16,"Mumbai","Mumbai",19.05,72.8667,
337,"HE",400017,"SanjivaniSoc,JawarNagar,GolibarRd,KharEast",66,"Dharavi Road","Maharashtra",16,"Mumbai","Mumbai",19.05,72.8667,
338,"HE",400027,"RazakChawlNo-03,BandraEast",87,"V J B Udyan","Maharashtra",16,"Mumbai","Mumbai",18.986,72.8259,
339,"HE",400028,"PlotNo7,BharatNagar,BandraEast",93,"Shivaji Park (Mumbai)","Maharashtra",16,"Mumbai","Mumbai",18.986,72.8259,
340,"HE",400028,"SudhirApartment,YashwantNagar,VakolaPipeline,SantacruzEast",93,"Shivaji Park (Mumbai)","Maharashtra",16,"Mumbai","Mumbai",18.986,72.8259,
341,"HE",400033,"DyaneshwarNagar,BandraEast",110,"L B S N E collage","Maharashtra",16,"Mumbai","Mumbai",19.0167,72.85,
342,"HE",400033,"MahakaliShivshankarNagar,ChawlNo7,NewAgripada,SantacruzEast",110,"L B S N E collage","Maharashtra",16,"Mumbai","Mumbai",19.0167,72.85,
343,"HW",400016,"HariNiwas,SVRoad,NextToPodarIbBoardSchool,KharWest",65,"Mahim E","Maharashtra",16,"Mumbai","Mumbai",19.0333,72.85,
344,"HW",400016,"RoseMaryBuilding,IceFactoryLane,OffHillRoad,TriosMall,BandraWest",65,"Mahim E","Maharashtra",16,"Mumbai","Mumbai",19.0333,72.85,
345,"HW",400017,"1101,Chinar,21,Khar",66,"Dharavi Road","Maharashtra",16,"Mumbai","Mumbai",19.05,72.8667,
346,"HW",400017,"RamadeviMansion,SeaViewBuilding,WestAvenueRoad,SantacruzWest",66,"Dharavi Road","Maharashtra",16,"Mumbai","Mumbai",19.05,72.8667,
347,"HW",400017,"SandeepBuilding,10,10ThRoad,KharWest",66,"Dharavi Road","Maharashtra",16,"Mumbai","Mumbai",19.05,72.8667,
348,"HW",400017,"VastuBuilding,BJRoad,BandraWest",66,"Dharavi Road","Maharashtra",16,"Mumbai","Mumbai",19.05,72.8667,
349,"HW",400055,"BloomingHeights,PaliHillRoad,NrPunjabSweet,BandraWest",136,"Vakola","Maharashtra",16,"Mumbai","Mumbai",19.0111,73.8747,
350,"HW",400055,"BlueFlameBuilding,SVRoad,ShantiNursingHomeBuilding-NextToIndianOil,BandraWest",136,"Vakola","Maharashtra",16,"Mumbai","Mumbai",19.0111,73.8747,
351,"HW",400055,"IndrayaniBulding,JuhuRoad,SantacruzWest",136,"Vakola","Maharashtra",16,"Mumbai","Mumbai",19.0111,73.8747,
352,"HW",400055,"NavBaharBuilding,15ThRoad,KharWest",136,"Vakola","Maharashtra",16,"Mumbai","Mumbai",19.0111,73.8747,
353,"HW",400055,"OrchidBuilding,NargisDuttRoad,OppDilipKumarBunglow,BandraWest",136,"Vakola","Maharashtra",16,"Mumbai","Mumbai",19.0111,73.8747,
354,"HW",400055,"PitalwalaBuilding,BazarRoad,AboveCitySweetCentre,BandraWest",136,"Vakola","Maharashtra",16,"Mumbai","Mumbai",19.0111,73.8747,
355,"HW",400055,"QuinnieVilla,PaliNaka,BandraWest,PaliNaka,BandraWest",136,"Vakola","Maharashtra",16,"Mumbai","Mumbai",19.0111,73.8747,
356,"HW",400055,"ShivChhayaBuilding,14ThRoad,OppNMMedical,KharWest",136,"Vakola","Maharashtra",16,"Mumbai","Mumbai",19.0111,73.8747,
357,"HW",400055,"ZarinaCHS,SVRoad,OppHPPetrolPump&JamaMasjid,BandraWest",136,"Vakola","Maharashtra",16,"Mumbai","Mumbai",19.0111,73.8747,
358,"KE",400055,"AWing,SevenhillsHospitalResidentialQuarters,SevenhillsHospitalResidentialQuarters,MarolMaroshiRoad,AndheriEast",136,"Vakola","Maharashtra",16,"Mumbai","Mumbai",19.0111,73.8747,
359,"KE",400055,"AlFaqirMohhmadChwal,FrancisWad,JogeshwariEast",136,"Vakola","Maharashtra",16,"Mumbai","Mumbai",19.0111,73.8747,
360,"KE",400055,"BaluPatilChawl,TankView,SaharVillage,Andheri(E),Mumbai",136,"Vakola","Maharashtra",16,"Mumbai","Mumbai",19.0111,73.8747,
361,"KE",400055,"BuildingNo3,TirupatiBalaji,SaharRd,Saiwadi,AndheriEastMumbai",136,"Vakola","Maharashtra",16,"Mumbai","Mumbai",19.0111,73.8747,
362,"KE",400055,"DamodarChawle,DamodarChawle,MograPada,AndheriEast",136,"Vakola","Maharashtra",16,"Mumbai","Mumbai",19.0111,73.8747,
363,"KE",400055,"DurvankurSociety,ShahajiRajeRoad,VileParleEast",136,"Vakola","Maharashtra",16,"Mumbai","Mumbai",19.0111,73.8747,
364,"KE",400055,"FernandesStreet,TejpalRoad,VileParleE",136,"Vakola","Maharashtra",16,"Mumbai","Mumbai",19.0111,73.8747,
365,"KE",400055,"GovindWadiSra,BehindDarpanTalkies,Chakala,AndheriEast",136,"Vakola","Maharashtra",16,"Mumbai","Mumbai",19.0111,73.8747,
366,"KE",400055,"GuruArjunDevCHS,MahakaliCavesRoad,BindraComplex,AndheriEast",136,"Vakola","Maharashtra",16,"Mumbai","Mumbai",19.0111,73.8747,
367,"KE",400055,"HarishSocietyHosstel,DixitRoad,BehindSatheyCollage,VileParleE",136,"Vakola","Maharashtra",16,"Mumbai","Mumbai",19.0111,73.8747,
368,"KE",400055,"HostelNo2,HillViewApartment,HillViewApartment,NPThakkarRoad,VileparleEast",136,"Vakola","Maharashtra",16,"Mumbai","Mumbai",19.0111,73.8747,
369,"KE",400055,"IBlock,NearGushanMadina,MasjidJe,JogeshwariEast",136,"Vakola","Maharashtra",16,"Mumbai","Mumbai",19.0111,73.8747,
370,"KE",400055,"Kadamwadi,MarolPipeline,AndheriKurla",136,"Vakola","Maharashtra",16,"Mumbai","Mumbai",19.0111,73.8747,
371,"KE",400055,"KalekhanChawl,Mograpada,AndheriEast",136,"Vakola","Maharashtra",16,"Mumbai","Mumbai",19.0111,73.8747,
372,"KE",400055,"Koliwada,Koliwada,JogE",136,"Vakola","Maharashtra",16,"Mumbai","Mumbai",19.0111,73.8747,
373,"KE",400055,"KurbanChawl,InfrontOfRatnaMahalHotel,Parsiwada,Chakala,AndheriEast",136,"Vakola","Maharashtra",16,"Mumbai","Mumbai",19.0111,73.8747,
374,"KE",400055,"MahatmaKabirNagar,BihariChawl,Chakala,SaharRoad,NearCigaretteFactory,AndheriEast",136,"Vakola","Maharashtra",16,"Mumbai","Mumbai",19.0111,73.8747,
375,"KE",400055,"MahatmaPhuleNagar,Bamanwada,VileParleEast",136,"Vakola","Maharashtra",16,"Mumbai","Mumbai",19.0111,73.8747,
376,"KE",400055,"MarolPoliceCamp,AndheriEast",136,"Vakola","Maharashtra",16,"Mumbai","Mumbai",19.0111,73.8747,
377,"KE",400055,"Padmavati,AzadRoad,VileParleE",136,"Vakola","Maharashtra",16,"Mumbai","Mumbai",19.0111,73.8747,
378,"KE",400055,"PremNagar,MasjidThakurMaidanCommuni9StPartyGalliJe,",136,"Vakola","Maharashtra",16,"Mumbai","Mumbai",19.0111,73.8747,
379,"KE",400055,"Premnagar,MadarsaMasjid,FishMaket,JogeshwariEast",136,"Vakola","Maharashtra",16,"Mumbai","Mumbai",19.0111,73.8747,
380,"KE",400055,"RadhabaiChawl,JhulaMaidan,Meghwadi,JogeshwariEast",136,"Vakola","Maharashtra",16,"Mumbai","Mumbai",19.0111,73.8747,
381,"KE",400055,"SaiBabaChawle,DrRajendraPrasadNagar,VileParleEast",136,"Vakola","Maharashtra",16,"Mumbai","Mumbai",19.0111,73.8747,
382,"KE",400055,"SakinaBhaiChawle,NearBhajiMarketParshiWada,Chakala,AndheriEast",136,"Vakola","Maharashtra",16,"Mumbai","Mumbai",19.0111,73.8747,
383,"KE",400055,"ShastriNagar,Aliyavar,JungMar,VileParleEast",136,"Vakola","Maharashtra",16,"Mumbai","Mumbai",19.0111,73.8747,
384,"KE",400055,"Shivshakti,ShraddhanandRoad,VileparleEast",136,"Vakola","Maharashtra",16,"Mumbai","Mumbai",19.0111,73.8747,
385,"KE",400055,"SitaramMithaiWalaChawl,MogaraPada,AndheriEast",136,"Vakola","Maharashtra",16,"Mumbai","Mumbai",19.0111,73.8747,
386,"KE",400055,"SuhanaBuilding,InFrontOfKamgarKalyanKendra,Gundavali,AndheriEast",136,"Vakola","Maharashtra",16,"Mumbai","Mumbai",19.0111,73.8747,
387,"KE",400055,"SwapnashilpSociety,MahantRoad,VileParleEast",136,"Vakola","Maharashtra",16,"Mumbai","Mumbai",19.0111,73.8747,
388,"KE",400055,"VishnuVilla,NarimanRoad,VileparleEast",136,"Vakola","Maharashtra",16,"Mumbai","Mumbai",19.0111,73.8747,
389,"KW",400024,"DCHouse,10ThRoad,Jvpd,Juhu,AndheriWest",80,"Nehru Nagar (Mumbai)","Maharashtra",16,"Mumbai","Mumbai",18.986,72.8259,
390,"KW",400050,"SamtaNagar,JuhuGalli,BarfiwalaRoad,AndheriWest",122,"Bandra W","Maharashtra",16,"Mumbai","Mumbai",19.0111,73.8747,
391,"KW",400055,"18,DevPark,ChandanCinema,Juhu,Juhu",136,"Vakola","Maharashtra",16,"Mumbai","Mumbai",19.0111,73.8747,
392,"KW",400055,"AzimNagarPatelChawl,SraBldg,AzimNagarPatelChawl,SraBldg,NearJogeshwariStation,JogeshwariWest",136,"Vakola","Maharashtra",16,"Mumbai","Mumbai",19.0111,73.8747,
393,"KW",400055,"DaulatHouse,VPRoad,GaondeviTemple,AndheriWest",136,"Vakola","Maharashtra",16,"Mumbai","Mumbai",19.0111,73.8747,
394,"KW",400055,"EliteResidentcy,SulatanaBad,JogeshwariWest",136,"Vakola","Maharashtra",16,"Mumbai","Mumbai",19.0111,73.8747,
395,"KW",400055,"JayMaaShardhaChawl,VMRoadNo05,NehruNagr,VileParle,VileParleWest",136,"Vakola","Maharashtra",16,"Mumbai","Mumbai",19.0111,73.8747,
396,"KW",400055,"JaywantiChawl,SarotaPada,AndheriWest",136,"Vakola","Maharashtra",16,"Mumbai","Mumbai",19.0111,73.8747,
397,"KW",400055,"JunaidNagar,CDBurfiwalaRoad,AndheriWest",136,"Vakola","Maharashtra",16,"Mumbai","Mumbai",19.0111,73.8747,
398,"KW",400055,"ManishaBuilding,PlotNo52,NSRoad,Jvpd,VileParleWest",136,"Vakola","Maharashtra",16,"Mumbai","Mumbai",19.0111,73.8747,
399,"KW",400055,"RamaleHouse,DongariGalli,Versova,AndheriWest",136,"Vakola","Maharashtra",16,"Mumbai","Mumbai",19.0111,73.8747,
400,"KW",400055,"RuiyaPark,JrMhatre,SaibabaMandir,Moragaon,Juhu",136,"Vakola","Maharashtra",16,"Mumbai","Mumbai",19.0111,73.8747,
401,"KW",400055,"ShagunBldg,NSRoadNo9Juhu,VilleParleWest",136,"Vakola","Maharashtra",16,"Mumbai","Mumbai",19.0111,73.8747,
402,"KW",400055,"SomnathDubeChawl,SomnathDubeChawl,SahkarRoad,JogeshwariWest",136,"Vakola","Maharashtra",16,"Mumbai","Mumbai",19.0111,73.8747,
403,"KW",400055,"ZohraCHS,GaothanLane1,AndheriWest",136,"Vakola","Maharashtra",16,"Mumbai","Mumbai",19.0111,73.8747,
404,"KW",400057,"A4,SilverCHS,VaishaliNagar,JogeshwariWest",140,"Parle Railway Station","Maharashtra",16,"Mumbai","Mumbai",19.0111,73.8747,
405,"KW",400057,"AdarshSociety,MhadaColony,AndheriWest",140,"Parle Railway Station","Maharashtra",16,"Mumbai","Mumbai",19.0111,73.8747,
406,"KW",400057,"AyublalaChawl,GaondeviDongari,AndheriWest",140,"Parle Railway Station","Maharashtra",16,"Mumbai","Mumbai",19.0111,73.8747,
407,"KW",400057,"DWing,NanawatiHostel,NanawatiHostel,VileparleWest",140,"Parle Railway Station","Maharashtra",16,"Mumbai","Mumbai",19.0111,73.8747,
408,"KW",400057,"IdbiQuarter,JuhuRoad,MakerKundanGarden,SantacruzWest",140,"Parle Railway Station","Maharashtra",16,"Mumbai","Mumbai",19.0111,73.8747,
409,"KW",400057,"LoksevaItihatSocChawl,JuhuGalli,WirelessRoad,OppKohinoorHotel,AndheriWest",140,"Parle Railway Station","Maharashtra",16,"Mumbai","Mumbai",19.0111,73.8747,
410,"KW",400057,"NJWadiaDispensary,SVRoad,AndheriRailwayStation,AndheriWest",140,"Parle Railway Station","Maharashtra",16,"Mumbai","Mumbai",19.0111,73.8747,
411,"KW",400057,"SantoshNagar,SraBuilding,BaheramBaug,JogeshwariWest",140,"Parle Railway Station","Maharashtra",16,"Mumbai","Mumbai",19.0111,73.8747,
412,"KW",400059,"BAqusaBuildingNo18,AmarutNagar,JogeshwariWest",146,"Marol Naka","Maharashtra",16,"Mumbai","Mumbai",19.0111,73.8747,
413,"KW",400059,"GulabPaniWaliChawl,GaondeviDongari,CamaRoad,NearNoorMasjid,AndheriWest",146,"Marol Naka","Maharashtra",16,"Mumbai","Mumbai",19.0111,73.8747,
414,"KW",400059,"PerimalChawl,RoadNo5,VMRoad,NeharuNagar,VileParleWest",146,"Marol Naka","Maharashtra",16,"Mumbai","Mumbai",19.0111,73.8747,
415,"KW",400059,"SanjayPlaza,ABNairRoad,Juhu,AndheriWest",146,"Marol Naka","Maharashtra",16,"Mumbai","Mumbai",19.0111,73.8747,
416,"KW",400060,"GulshanWelfareSoceity,GilbertHillRoad,ChhabilJantaColony,AndheriWest",148,"Jogeshwari E","Maharashtra",16,"Mumbai","Jogeshwari ",19.1699,72.8504,
417,"KW",400060,"JuhuPoliceStation,VMRoad,NearKalaniketan,VileparleWest",148,"Jogeshwari E","Maharashtra",16,"Mumbai","Jogeshwari ",19.1699,72.8504,
418,"KW",400060,"JunedNagar,BarfiwalaRoad,NearIrlaMajid,AndheriWest",148,"Jogeshwari E","Maharashtra",16,"Mumbai","Jogeshwari ",19.1699,72.8504,
419,"KW",400060,"MadhubhanTower,DnNagar,AndheriWest",148,"Jogeshwari E","Maharashtra",16,"Mumbai","Jogeshwari ",19.1699,72.8504,
420,"KW",400060,"MhadaColonyNo2,TapeDarga,OppWadiaHighschool,AndheriWest",148,"Jogeshwari E","Maharashtra",16,"Mumbai","Jogeshwari ",19.1699,72.8504,
421,"KW",400060,"ThomasAppartment,OppNatrajBuilding,Versova,AndheriWest",148,"Jogeshwari E","Maharashtra",16,"Mumbai","Jogeshwari ",19.1699,72.8504,
422,"KW",400069,"AbbubakarChawl,GaondeviDongari,AndheriWest",171,"Nagardas Road","Maharashtra",16,"Mumbai","Mumbai",19.1145,72.8712,
423,"KW",400069,"AmilBrothers,BaherambaugRoad,JogeshwariWest",171,"Nagardas Road","Maharashtra",16,"Mumbai","Mumbai",19.1145,72.8712,
424,"KW",400069,"DarshanBuilding,JogeshwariWest",171,"Nagardas Road","Maharashtra",16,"Mumbai","Mumbai",19.1145,72.8712,
425,"KW",400069,"EversineCosmicBuilding,Oshiwara,JogeshwariWest",171,"Nagardas Road","Maharashtra",16,"Mumbai","Mumbai",19.1145,72.8712,
426,"KW",400069,"LalasahebWaliChawl,FarooqiaGilburtHillRoad,NearTashkanBekary,AndheriWest",171,"Nagardas Road","Maharashtra",16,"Mumbai","Mumbai",19.1145,72.8712,
427,"KW",400070,"AWing,Hibiscus,NewFisheriesRoad,7Bunglows,AndheriWest",175,"Netajinagar","Maharashtra",16,"Mumbai","Mumbai",19.0713,72.883,
428,"KW",400070,"AadarshChawl,AnandNagar,OppositeMegaMall,JogeshwariWest",175,"Netajinagar","Maharashtra",16,"Mumbai","Mumbai",19.0713,72.883,
429,"KW",400070,"AmanSociety,JuhuGalli,NearAqusaMasjid,AndheriWest",175,"Netajinagar","Maharashtra",16,"Mumbai","Mumbai",19.0713,72.883,
430,"KW",400070,"AmbeMataChawlNo8,NeharuNagar,VileParleWest",175,"Netajinagar","Maharashtra",16,"Mumbai","Mumbai",19.0713,72.883,
431,"KW",400070,"Building6,SagarBuildingSra,VPRoad,AndheriWest",175,"Netajinagar","Maharashtra",16,"Mumbai","Mumbai",19.0713,72.883,
432,"KW",400070,"DhangarWadi,JuhuGalli,WirelessRoad,NearSiddharudhMathha,AndheriWest",175,"Netajinagar","Maharashtra",16,"Mumbai","Mumbai",19.0713,72.883,
433,"KW",400070,"Dhangarwada,KarnatakaSoceity,BehindMakkaMasjid,AndheriWest",175,"Netajinagar","Maharashtra",16,"Mumbai","Mumbai",19.0713,72.883,
434,"KW",400070,"JunedNagar,CDBarfiwalaRoad,JuhuGalli,AndheriWest",175,"Netajinagar","Maharashtra",16,"Mumbai","Mumbai",19.0713,72.883,
435,"KW",400070,"LaxmiWelfarSociety,DhangarWadi,JuhuGalli,AndheriWest",175,"Netajinagar","Maharashtra",16,"Mumbai","Mumbai",19.0713,72.883,
436,"KW",400070,"ManikamChawl,VileParleWest",175,"Netajinagar","Maharashtra",16,"Mumbai","Mumbai",19.0713,72.883,
437,"KW",400070,"NamakiChawl,JuhuGalli,PoliceChouki,AndheriWest",175,"Netajinagar","Maharashtra",16,"Mumbai","Mumbai",19.0713,72.883,
438,"KW",400070,"SeemaBuilding,NDattaMarg,FourBunglow,AndheriWest",175,"Netajinagar","Maharashtra",16,"Mumbai","Mumbai",19.0713,72.883,
439,"KW",400072,"BWing,ShreeDarshanBuilding,SVPMhada,VersovaTelephoneExchange,AndheriWest",178,"Vihar Road","Maharashtra",16,"Mumbai",,19.0737,72.9009,
440,"KW",400072,"MurganChawl,NeharuNagar,VileparleWest",178,"Vihar Road","Maharashtra",16,"Mumbai",,19.0737,72.9009,
441,"KW",400093,"2/1,HajiDawoodChawl,SVRoad,Amboli,AndheriWest",220,"Chakala Midc","Maharashtra",16,"Mumbai","Mumbai",19.2355,72.8468,
442,"KW",400093,"JangleHouse,DongriGalliVarsova,VarsovaRoad,AndheriWest",220,"Chakala Midc","Maharashtra",16,"Mumbai","Mumbai",19.2355,72.8468,
443,"KW",400099,"38Society,RNo24,Mhada,4Bunglow,AndheriWest",228,"Sahar P & T Colony","Maharashtra",16,"Mumbai","Mumbai",19.2355,72.8468,
444,"KW",400099,"FarjanaMasjid,RaghwendraMandirRoad,GulshanNagar,JogeshwariWest",228,"Sahar P & T Colony","Maharashtra",16,"Mumbai","Mumbai",19.2355,72.8468,
445,"KW",400099,"RajkumarChawl,NeharuNagar,VileparleWest",228,"Sahar P & T Colony","Maharashtra",16,"Mumbai","Mumbai",19.2355,72.8468,
446,"KW",400099,"RamAdharSinghChawl,KrantiNagar,JogeshwariWest",228,"Sahar P & T Colony","Maharashtra",16,"Mumbai","Mumbai",19.2355,72.8468,
447,"KW",400099,"RamanChawl,NehruNagar,BMRoad,VileparleWest",228,"Sahar P & T Colony","Maharashtra",16,"Mumbai","Mumbai",19.2355,72.8468,
448,"L ",400024,"AmbikaNagar,SunderBaugh,Kamani,KurlaWest",80,"Nehru Nagar (Mumbai)","Maharashtra",16,"Mumbai","Mumbai",18.986,72.8259,
449,"L ",400024,"FitwalaBldg,PipeRoad,BehindKingBakery,KurlaWest",80,"Nehru Nagar (Mumbai)","Maharashtra",16,"Mumbai","Mumbai",18.986,72.8259,
450,"L ",400024,"HajiSultanChawl,HajiSultanChawl,QureshiNagar,ShivShrushtiRoad,CharbiGalli,KurlaEast",80,"Nehru Nagar (Mumbai)","Maharashtra",16,"Mumbai","Mumbai",18.986,72.8259,
451,"L ",400024,"JaibunnisaChawl,RajivNagar,KurlaAndheriRoad,NearShivprabhaBuilding,Sakinaka,Mumbai",80,"Nehru Nagar (Mumbai)","Maharashtra",16,"Mumbai","Mumbai",18.986,72.8259,
452,"L ",400043,"AWing,NoorMahalBuilding,PipelineRoad,NearCityHospital,KurlaWest",119,"Shivaji Nagar(Mum)   ","Maharashtra",16,"Mumbai",,19.1026,72.8242,
453,"L ",400043,"GanayaChwal,ShantiNagar,KurlaAndheriRoad,SafedPhool,NearZarimariMetro,Sakinaka",119,"Shivaji Nagar(Mum)   ","Maharashtra",16,"Mumbai",,19.1026,72.8242,
454,"L ",400043,"GauravNiwas,PareraWadi,PipelineRoad,Asalfa,Sakinaka",119,"Shivaji Nagar(Mum)   ","Maharashtra",16,"Mumbai",,19.1026,72.8242,
455,"L ",400043,"Heritage,D'SouzaNagar,90FeetRoad,MohiliVillage,Sakinaka,Andheri(E)",119,"Shivaji Nagar(Mum)   ","Maharashtra",16,"Mumbai",,19.1026,72.8242,
456,"L ",400043,"JagannathTemple,KonarkSociety,MarolMilitaryRoad,Sakinaka,KurlaWest,Sakinaka,Mumbai",119,"Shivaji Nagar(Mum)   ","Maharashtra",16,"Mumbai",,19.1026,72.8242,
457,"L ",400043,"KhanCpd,IndiraNagar,MuslimSociety,KurlaAndheriRoad,Jarimari,KurlaW",119,"Shivaji Nagar(Mum)   ","Maharashtra",16,"Mumbai",,19.1026,72.8242,
458,"L ",400043,"NabiChawl,HariyanwalaLane,NabiChawl,Kurla(W)",119,"Shivaji Nagar(Mum)   ","Maharashtra",16,"Mumbai",,19.1026,72.8242,
459,"L ",400043,"NehruNagar,AlidadaEstate,SGBarveMarg,NehruNagar,Kurla(E)",119,"Shivaji Nagar(Mum)   ","Maharashtra",16,"Mumbai",,19.1026,72.8242,
460,"L ",400043,"NikitaBuilding,AWing,MarolMilitaryRoad,BamandayaPada,AndheriEastMumbai",119,"Shivaji Nagar(Mum)   ","Maharashtra",16,"Mumbai",,19.1026,72.8242,
461,"L ",400043,"PoliceColony,NehruNagar,MotherDairyRoad,PoliceColony,NehruNagar,KurlaEast",119,"Shivaji Nagar(Mum)   ","Maharashtra",16,"Mumbai",,19.1026,72.8242,
462,"L ",400043,"SulochanaChawl,AshokNagar,Marol,MilitaryRoad,MarolMilitaryRoad,AndheriE",119,"Shivaji Nagar(Mum)   ","Maharashtra",16,"Mumbai",,19.1026,72.8242,
463,"L ",400070,"152Fitwala,FitwalaCompound,PipeRoad,Madarsa,KurlaWest",175,"Netajinagar","Maharashtra",16,"Mumbai","Mumbai",19.0713,72.883,
464,"L ",400070,"35ImtiazBuilding,ShamiCompound,Brahmanwadi,KalluMuttonShop,KurlaWest",175,"Netajinagar","Maharashtra",16,"Mumbai","Mumbai",19.0713,72.883,
465,"L ",400070,"BehindJarimariTemple,JarimariTemple,KurlaAndheriRoad,BehindJarimariTemple,Sakinaka",175,"Netajinagar","Maharashtra",16,"Mumbai","Mumbai",19.0713,72.883,
466,"L ",400070,"FakirNasuruddinChawl,QureshiNagar,KurlaW,NearCharbiGalli,KurlaEast",175,"Netajinagar","Maharashtra",16,"Mumbai","Mumbai",19.0713,72.883,
467,"L ",400070,"HamidChawl,JariMari,SakiNagar,SaiMohammadCompound,HamidChawl,JariMari,LakadwalaRoad,KurlaWest",175,"Netajinagar","Maharashtra",16,"Mumbai","Mumbai",19.0713,72.883,
468,"L ",400070,"HariMasjid,AndheriRoad,JunaKabrasthan,Andheri(E)",175,"Netajinagar","Maharashtra",16,"Mumbai","Mumbai",19.0713,72.883,
469,"L ",400070,"HitechSeatingSystem,GalaNo3,OppPeninsulaHotel,Sakinaka,KurlaW,SakinakaMetro,KurlaWest",175,"Netajinagar","Maharashtra",16,"Mumbai","Mumbai",19.0713,72.883,
470,"L ",400070,"JayAmbikaMataNagar,SunderBaug,Kamani,KurlaWest",175,"Netajinagar","Maharashtra",16,"Mumbai","Mumbai",19.0713,72.883,
471,"L ",400070,"JuriPathakChawl,VijayNagar,KurlaAndheriRoad,OppNazHotel,KurlaWest,Mumbai",175,"Netajinagar","Maharashtra",16,"Mumbai","Mumbai",19.0713,72.883,
472,"L ",400070,"Kajupada,VeerAmitNagar,Kamani,KurlaWest",175,"Netajinagar","Maharashtra",16,"Mumbai","Mumbai",19.0713,72.883,
473,"L ",400070,"KohetoorCHS,BldgNo12,KohetoorCHS,KapadiaNagar,DrBhagwanClinic,KurlaWest",175,"Netajinagar","Maharashtra",16,"Mumbai","Mumbai",19.0713,72.883,
474,"L ",400070,"MahadaColony,SwadeshiMillRoad,SwadeshiMill,Chunabhatti",175,"Netajinagar","Maharashtra",16,"Mumbai","Mumbai",19.0713,72.883,
475,"L ",400070,"MubarakComplex,BldgNo3,MubarakComplex,VbNagar,KalluMuttonShop,KurlaWest",175,"Netajinagar","Maharashtra",16,"Mumbai","Mumbai",19.0713,72.883,
476,"L ",400070,"MubarakHotel,GulabShahEstate,LbsMarg,OppDeluxHotel,KurlaWest",175,"Netajinagar","Maharashtra",16,"Mumbai","Mumbai",19.0713,72.883,
477,"L ",400070,"NarayanNagar,NssRoad,ShahDargah,KurlaWest",175,"Netajinagar","Maharashtra",16,"Mumbai","Mumbai",19.0713,72.883,
478,"L ",400070,"NoorEJahanComplex,PipeRoad,NearKurlaNursingHome,KurlaWest",175,"Netajinagar","Maharashtra",16,"Mumbai","Mumbai",19.0713,72.883,
479,"L ",400070,"OppTaximanColony,ABlockSulwemanVbldg,OppositeBuddhaColony,NearGareebNawazBldg,KurlaWest",175,"Netajinagar","Maharashtra",16,"Mumbai","Mumbai",19.0713,72.883,
480,"L ",400070,"PatelWadi,MarwadiChawl,PipeRoad,NearKurlaNursingHome,KurlaWest",175,"Netajinagar","Maharashtra",16,"Mumbai","Mumbai",19.0713,72.883,
481,"L ",400070,"SaiDham,SaiDhamCHS,GhatkoparAndheriRoad,SakinakaMetro,KurlaWest",175,"Netajinagar","Maharashtra",16,"Mumbai","Mumbai",19.0713,72.883,
482,"L ",400070,"TaybahApt,KhanAbdulMasjidRoad,Brahmanwadi,KurlaWest",175,"Netajinagar","Maharashtra",16,"Mumbai","Mumbai",19.0713,72.883,
483,"L ",400070,"UnwalaCompound,KurlaAndheriRoad,BehindAnandBhawanHotel,Andheri",175,"Netajinagar","Maharashtra",16,"Mumbai","Mumbai",19.0713,72.883,
484,"L ",400070,"WadiaEstate,BailBazaar,WadiaEstate,KurlaWest",175,"Netajinagar","Maharashtra",16,"Mumbai","Mumbai",19.0713,72.883,
485,"L ",400071,"GandhiNagar,Kajupada,PipelineRoad,Kajupada,Pipeline,KurlaW",176,"Chembur","Maharashtra",16,"Mumbai",,19.0348,72.8929,
486,"L ",400072,"AmarjyotBuilding,HalavPool,NearMig,DhobiGhat,KurlaWest",178,"Vihar Road","Maharashtra",16,"Mumbai",,19.0737,72.9009,
487,"L ",400072,"Darusalam,HCSoc,HalavPool,KohinoorRoad,NrGajiMiyaDargah,KurlaWest",178,"Vihar Road","Maharashtra",16,"Mumbai",,19.0737,72.9009,
488,"L ",400072,"DostiEnclave,90FeetRoad,D'SouzaNagar,KurlaWest",178,"Vihar Road","Maharashtra",16,"Mumbai",,19.0737,72.9009,
489,"L ",400072,"Dwarkapuri,LbsMarg,NearCityHospital,KurlaWest",178,"Vihar Road","Maharashtra",16,"Mumbai",,19.0737,72.9009,
490,"L ",400072,"FitwalaBldg,PipeRoad,IlyasFeetwala,KurlaWest",178,"Vihar Road","Maharashtra",16,"Mumbai",,19.0737,72.9009,
491,"L ",400072,"KadarShahChawl,70/7,QureshiNagar,MasjidRoad,BadiMasjisd,KurlaEast",178,"Vihar Road","Maharashtra",16,"Mumbai",,19.0737,72.9009,
492,"L ",400072,"KhadiNo3,JaffarCompound,JaffarCompund,SakinakaLinkRoad,KhadiNo3,Andheri",178,"Vihar Road","Maharashtra",16,"Mumbai",,19.0737,72.9009,
493,"L ",400072,"KrupaSidhu,SahakariGrihaNirman,KamgarNagar,SaiMandir,KurlaEast",178,"Vihar Road","Maharashtra",16,"Mumbai",,19.0737,72.9009,
494,"L ",400072,"PanBazarSociety,Chunabhatti",178,"Vihar Road","Maharashtra",16,"Mumbai",,19.0737,72.9009,
495,"L ",400072,"SandeshNagar,BailBazarPoliceChowki,LalKilaMitraMandal,KurlaWest",178,"Vihar Road","Maharashtra",16,"Mumbai",,19.0737,72.9009,
496,"L ",400072,"SarangChawl,HariMasjid,CstRoad,KurlaCourt,KurlaWest",178,"Vihar Road","Maharashtra",16,"Mumbai",,19.0737,72.9009,
497,"L ",400072,"SheetalBuilding,CstRoad,BehindSheetalCinema,KurlaWest",178,"Vihar Road","Maharashtra",16,"Mumbai",,19.0737,72.9009,
498,"L ",400072,"SraBuildingNo5,DWing,PremierRoad,OppKohinoorHospital,KurlaWest",178,"Vihar Road","Maharashtra",16,"Mumbai",,19.0737,72.9009,
499,"L ",400072,"SuleimanBldg,NewMillRoad,MehboobiSulemaniMasjid,NearGandhiMaidan,KurlaWest",178,"Vihar Road","Maharashtra",16,"Mumbai",,19.0737,72.9009,
500,"L ",400072,"SunderBaug,NavjivanMandal,LbsMarg,NavjivanMandal,KurlaWKamani",178,"Vihar Road","Maharashtra",16,"Mumbai",,19.0737,72.9009,
501,"L ",400072,"SunderNagar,TungaGaon,Powai,NrShivanSchool,Powai",178,"Vihar Road","Maharashtra",16,"Mumbai",,19.0737,72.9009,
502,"L ",400072,"VarshaAdarshNagar,AWing,VarshaAdarshNagar,KurlaStation,SaiMandir,KurlaEast",178,"Vihar Road","Maharashtra",16,"Mumbai",,19.0737,72.9009,
503,"L ",400082,"KorgaokarSevaNiwas,PandharinathSevaMandal,PandharinathSevaMandal,HillRoad,NearKadipitta,Chunabhatti",203,"Bhandup Complex","Maharashtra",16,"Mumbai",,19.1247,72.9488,
504,"L ",400088,"JayAmbeMitraMandal,SandeshNagar,BailBazar,KurlaAndheriRoad,NearMunicipalSchool,Kurla",213,"Trombay","Maharashtra",16,"Mumbai",,19.0333,72.9333,
505,"L ",400088,"SunderBaug,NearSaiBabaMandir,SundarBaugLane,NearSaiBabaMandir,KurlaWest,Mumbai",213,"Trombay","Maharashtra",16,"Mumbai",,19.0333,72.9333,
506,"ME",400043,"BldgNo7/B,AmanSociety,NatwarParekhCompound,ShivajiNagarPoliceStation,LotusColony",119,"Shivaji Nagar(Mum)   ","Maharashtra",16,"Mumbai",,19.1026,72.8242,
507,"ME",400043,"BuildingNo12C,NatwarParekhCompound,ShivajiNagarPoliceStation,ShivajiNagar",119,"Shivaji Nagar(Mum)   ","Maharashtra",16,"Mumbai",,19.1026,72.8242,
508,"ME",400043,"BuildingNo13,Hiranandani,Lallubhai,LallubhaiPoliceStation,Govandi",119,"Shivaji Nagar(Mum)   ","Maharashtra",16,"Mumbai",,19.1026,72.8242,
509,"ME",400043,"BuildingNo16,Premjyot,IndianOil,BankOfBaroda,LotusColony",119,"Shivaji Nagar(Mum)   ","Maharashtra",16,"Mumbai",,19.1026,72.8242,
510,"ME",400043,"BuildingNo17,Sadguru,VashiNaka,MahadaColony,VashiNaka",119,"Shivaji Nagar(Mum)   ","Maharashtra",16,"Mumbai",,19.1026,72.8242,
511,"ME",400043,"KamalaRaman,GMLink,PlNo33,BaiganwadiRickshawStand",119,"Shivaji Nagar(Mum)   ","Maharashtra",16,"Mumbai",,19.1026,72.8242,
512,"ME",400043,"MgrRoad,DSectorMarketRoad,Cheetacamp",119,"Shivaji Nagar(Mum)   ","Maharashtra",16,"Mumbai",,19.1026,72.8242,
513,"ME",400043,"NageshKambleChawl,MhantreHouse,Agarwadi",119,"Shivaji Nagar(Mum)   ","Maharashtra",16,"Mumbai",,19.1026,72.8242,
514,"ME",400043,"NewBharatNagar,HashuAdvaniNagar,HpGroundRoad,AshuKiranaStore,VashiNaka",119,"Shivaji Nagar(Mum)   ","Maharashtra",16,"Mumbai",,19.1026,72.8242,
515,"ME",400043,"PlotNo25,AhilyabaiHolkarMarg,JaffariSchool,ShivajiNagar",119,"Shivaji Nagar(Mum)   ","Maharashtra",16,"Mumbai",,19.1026,72.8242,
516,"ME",400043,"RdNo4,5,6,ShivajiNagar",119,"Shivaji Nagar(Mum)   ","Maharashtra",16,"Mumbai",,19.1026,72.8242,
517,"ME",400043,"TataNagar,EktaSahakariMandal,DeonarArbaitorGovandiStnRoad,MochiGalli,TataNagar",119,"Shivaji Nagar(Mum)   ","Maharashtra",16,"Mumbai",,19.1026,72.8242,
518,"ME",400050,"BajiPrabhuMarg,RdNo11,12,VishwaShantiChawl,Baiganwadi",122,"Bandra W","Maharashtra",16,"Mumbai","Mumbai",19.0111,73.8747,
519,"ME",400050,"BldgNo7,LallubhaiCompound,RajMahalBldg,CementGodown,BldgNo10A,Deonar",122,"Bandra W","Maharashtra",16,"Mumbai","Mumbai",19.0111,73.8747,
520,"ME",400050,"BlgNo93,PmgpNallah,PremjiGalli,AmbedkarNagar,MohitePatilNagar,Mankhurd",122,"Bandra W","Maharashtra",16,"Mumbai","Mumbai",19.0111,73.8747,
521,"ME",400050,"IndiraNagar,ChikalwadiMunicipalSchool,BharatNagarMasjid,ALineG5,Baiganwadi",122,"Bandra W","Maharashtra",16,"Mumbai","Mumbai",19.0111,73.8747,
522,"ME",400050,"KamalaRamanNagar,PlNo33,DumpingRdPlNo33,FurkaniyaMasjid,Baiganwadi",122,"Bandra W","Maharashtra",16,"Mumbai","Mumbai",19.0111,73.8747,
523,"ME",400050,"PayliPada,SwamiVivekanadSchool,TataCompound,KapporChawl,Cheetacamp",122,"Bandra W","Maharashtra",16,"Mumbai","Mumbai",19.0111,73.8747,
524,"ME",400050,"RdNo12,13,LineG,Baiganwadi",122,"Bandra W","Maharashtra",16,"Mumbai","Mumbai",19.0111,73.8747,
525,"ME",400050,"SaiDarshanCoop,MMRDABldg23/C,PllMarg,Gautamnagar",122,"Bandra W","Maharashtra",16,"Mumbai","Mumbai",19.0111,73.8747,
526,"ME",400050,"ValmikiRahiwasiSangh,SonapurRoad,SaibabaMandir,Mankhurd",122,"Bandra W","Maharashtra",16,"Mumbai","Mumbai",19.0111,73.8747,
527,"ME",400052,"PlNo16,15,20,NearNallah,LotusColony",128,"V.P. Road","Maharashtra",16,"Mumbai","Mumbai",18.7997,72.926,
528,"ME",400052,"RamanMamaNagar,RickshawStndRoad,NamdevMoryaMarg,Baiganwadi",128,"V.P. Road","Maharashtra",16,"Mumbai","Mumbai",18.7997,72.926,
529,"ME",400052,"RdNo3And4,Line8,ShivajiNagar",128,"V.P. Road","Maharashtra",16,"Mumbai","Mumbai",18.7997,72.926,
530,"ME",400052,"ShiddivinayakCHS,BldgNo2/D,MaharashtraNagar,OmCHS,Mankhurd",128,"V.P. Road","Maharashtra",16,"Mumbai","Mumbai",18.7997,72.926,
531,"ME",400054,"GautamNagar,GmLinkRoad,PllLokhandeMarg,KarbalaMasjid,Nimonibaug",135,"Santacruz(W)","Maharashtra",16,"Mumbai","Mumbai",19.0111,73.8747,
532,"ME",400054,"RdNo6,TLineRdNo30,ShivajiNagar",135,"Santacruz(W)","Maharashtra",16,"Mumbai","Mumbai",19.0111,73.8747,
533,"ME",400088,"BldgNo6C,NatwarParekhCompound,ShivajiNagarPoliceStation,LotusColony",213,"Trombay","Maharashtra",16,"Mumbai",,19.0333,72.9333,
534,"MW",400071,"TilakNagar,Chembur",176,"Chembur","Maharashtra",16,"Mumbai",,19.0348,72.8929,
535,"MW",400075,"BuildingNo22,NearBhauPradhanMaidan,SubhashNagarChembur,Mumbai-71,NearBhauPradhanMaidan,Chembur",185,"Best Staff Colony","Maharashtra",16,"Mumbai",,19.0737,72.9009,
536,"MW",400075,"MahatmaPhuleChawl,PLLokhandeMarg,MahatmaPhuleChawl,Chembur",185,"Best Staff Colony","Maharashtra",16,"Mumbai",,19.0737,72.9009,
537,"MW",400075,"SiddharthColony,GangubaiPatoleChawl,ChemburNaka,Chembur,Chembur",185,"Best Staff Colony","Maharashtra",16,"Mumbai",,19.0737,72.9009,
538,"MW",400077,"AWing,SiddharthResidency,SiddharthResidency,PYThoratMarg,SiddharthResidency,Chembur",187,"Rajawadi","Maharashtra",16,"Mumbai",,19.0737,72.9009,
539,"MW",400077,"LalDongar,NearBmcSchool,Chembur,Chembur",187,"Rajawadi","Maharashtra",16,"Mumbai",,19.0737,72.9009,
540,"MW",400077,"NearBmcSchool,CollectorColony,ShivshaktiNagar,NearBmcSchool,Chembur",187,"Rajawadi","Maharashtra",16,"Mumbai",,19.0737,72.9009,
541,"MW",400077,"PostalColonyBusStop,NearSamajMandirHall,ShramjiviNagar,Chembur",187,"Rajawadi","Maharashtra",16,"Mumbai",,19.0737,72.9009,
542,"MW",400079,"AmarkunjCHS,AmarkunjSociety,PestamSagarRoadNo2,PestamSagar,Chembur",194,"Psm Colony","Maharashtra",16,"Mumbai",,19.1149,72.9267,
543,"MW",400079,"BuildingNo29,WingA,TilakNagarColony,TilakNagar,Chembur",194,"Psm Colony","Maharashtra",16,"Mumbai",,19.1149,72.9267,
544,"MW",400084,"LaxmiNagar,MahulRoad,NearRailwayTrack,Chembur",206,"Barve Nagar","Maharashtra",16,"Mumbai",,19.1247,72.9488,
545,"MW",400084,"RcBarrackNo25&32,RcBarrack,IndiraNagar,OppRedSpiceHotel,Chembur",206,"Barve Nagar","Maharashtra",16,"Mumbai",,19.1247,72.9488,
546,"MW",400084,"SukhshantiChawl,PLLokhandeMarg,MukundNagar,Chembur",206,"Barve Nagar","Maharashtra",16,"Mumbai",,19.1247,72.9488,
547,"MW",400086,"AWing,BldgNo24,OppAyushiSuperMarket,Chembur,Chembur",208,"Ghatkopar W","Maharashtra",16,"Mumbai",,19.1247,72.9488,
548,"MW",400086,"AjinkyataraCHS,SwastikPark,CstRoad,InsideSarvodayNagarSoc,NearKurlaSignal,Chembur",208,"Ghatkopar W","Maharashtra",16,"Mumbai",,19.1247,72.9488,
549,"MW",400086,"GalliNo22&23,ThakkarBappaColony,IndiraNagar,Chembur",208,"Ghatkopar W","Maharashtra",16,"Mumbai",,19.1247,72.9488,
550,"MW",400086,"GuruDevPushpanjaliCHS,PlotNo481/A,RoadNo15,Chembur",208,"Ghatkopar W","Maharashtra",16,"Mumbai",,19.1247,72.9488,
551,"MW",400086,"IslampuraAnsariRoad,Islampura,Chembur,NearJamaMasjid,Chembur",208,"Ghatkopar W","Maharashtra",16,"Mumbai",,19.1247,72.9488,
552,"MW",400086,"RCBarrackNo39,NearLalMithiGarden,ChemburCamp,Chembur,Chembur",208,"Ghatkopar W","Maharashtra",16,"Mumbai",,19.1247,72.9488,
553,"MW",400086,"TopazBuilding,ChhedaNagar,Chembur,Chembur,Chembur",208,"Ghatkopar W","Maharashtra",16,"Mumbai",,19.1247,72.9488,
554,"MW",400086,"UtkarshNagar,PLLokhandeMarg,Chembur",208,"Ghatkopar W","Maharashtra",16,"Mumbai",,19.1247,72.9488,
555,"MW",400086,"VatsalataiNagar,NearKurlaSignal,Chembur,VatsalataiNagar,Chembur,",208,"Ghatkopar W","Maharashtra",16,"Mumbai",,19.1247,72.9488,
556,"MW",400086,"ZeonAjmeraLand,BhaktiPark,Wadala(East)",208,"Ghatkopar W","Maharashtra",16,"Mumbai",,19.1247,72.9488,
557,"MW",400089,"MahulGaon,MahulSra,MahulColony,Chembur",216,"Tilak Nagar (Mumbai)","Maharashtra",16,"Mumbai",,19.1247,72.9488,
558,"N ",400037,"AWing,TrimurtiCHS,TrimurtiCHSAWing,LinkRoad,NearShreyesSignal,NityananadNagar",114,"Antop Hill","Maharashtra",16,"Mumbai","Mumbai",19.0167,72.85,
559,"N ",400071,"ArvindVilla,JpRoad,OppGhatkoparRailwayStation,GhatkoparW",176,"Chembur","Maharashtra",16,"Mumbai",,19.0348,72.8929,
560,"N ",400071,"G7,MunicipalColony,RBKadamMarg,NearMuktabaiHospital,BhatwadiBarvenagar",176,"Chembur","Maharashtra",16,"Mumbai",,19.0348,72.8929,
561,"N ",400071,"MunicipalColonyA,RoadNo6,VikroliParkSite",176,"Chembur","Maharashtra",16,"Mumbai",,19.0348,72.8929,
562,"N ",400071,"RambaliChawl,WamanMasterWadi,KisanKharatRoad,NearSaiBabaMandir,NityananadNagar",176,"Chembur","Maharashtra",16,"Mumbai",,19.0348,72.8929,
563,"N ",400071,"SaiganeshBldg,DnsVilla,RBKadamMarg,RupalIndustries,Bhatwadi",176,"Chembur","Maharashtra",16,"Mumbai",,19.0348,72.8929,
564,"N ",400071,"VeerSambhajiChawl,GaneshNagar,AboveDuckline,NearSaibabaMandir,KhandobaTekadiVps",176,"Chembur","Maharashtra",16,"Mumbai",,19.0348,72.8929,
565,"N ",400074,"9HayadMohammadChawl,9HayadMohammadChawl,ShakarChawl,ParshewadiRoad,NearKadhiArea,Parshewadi",181,"FCI","Maharashtra",16,"Mumbai",,19.0737,72.9009,
566,"N ",400074,"AAndBWing,Parasnath,Parasnath,SudhaPark,NearRailwayPoliceGround,GarodiaNagar",181,"FCI","Maharashtra",16,"Mumbai",,19.0737,72.9009,
567,"N ",400074,"ChiragNagarChawlNo3PorbandarwalaChawl,LbsRoadOppNavalParkGate,NearBawdiNearDrAnaeesClinicChiragNagar,GhatkoparW",181,"FCI","Maharashtra",16,"Mumbai",,19.0737,72.9009,
568,"N ",400074,"NoorMohhamadChawl,RoadNo1,OppFireBrigade,VikroliParkSite",181,"FCI","Maharashtra",16,"Mumbai",,19.0737,72.9009,
569,"N ",400074,"SavitribaiPhule,SavitribaiPhuleRoad,NearPantNagarPoliceStation,PantNagar",181,"FCI","Maharashtra",16,"Mumbai",,19.0737,72.9009,
570,"N ",400074,"TirangaChawl,GalliNo105,NearChitraDairy,KamrajNagar",181,"FCI","Maharashtra",16,"Mumbai",,19.0737,72.9009,
571,"N ",400075,"BWing,BuildingNo76,BuildingNo76,NearSubhashChandraBoseGardenNearPoliceStation,PantNagar",185,"Best Staff Colony","Maharashtra",16,"Mumbai",,19.0737,72.9009,
572,"N ",400089,"BaslingChawl,RBKadamMarg,MataMahakaliMandir,Bhatwadi",216,"Tilak Nagar (Mumbai)","Maharashtra",16,"Mumbai",,19.1247,72.9488,
573,"N ",400089,"Bldg21,PriyaDarshaniCHS,PriyaDarshaniCHS,NathPaiRoad,NearOrbitTower,GarodiaNagar",216,"Tilak Nagar (Mumbai)","Maharashtra",16,"Mumbai",,19.1247,72.9488,
574,"N ",400089,"KilleShivneriSociety,RamNagarB,VikroliParkSite",216,"Tilak Nagar (Mumbai)","Maharashtra",16,"Mumbai",,19.1247,72.9488,
575,"N ",400089,"RamRahimMitraMandalChawl,StationRoad,NearGhatkoparStation,NityananadNagarGhatkoparW",216,"Tilak Nagar (Mumbai)","Maharashtra",16,"Mumbai",,19.1247,72.9488,
576,"N ",400089,"SindhiChawl,LbsRoad,NearPoliceCompound,ChiragNagarGhatkoparW",216,"Tilak Nagar (Mumbai)","Maharashtra",16,"Mumbai",,19.1247,72.9488,
577,"N ",400089,"SunilPremisiesCHSl,ManeklalEastateRoad,ManeklalEstate,GhatkoparW",216,"Tilak Nagar (Mumbai)","Maharashtra",16,"Mumbai",,19.1247,72.9488,
578,"N ",400089,"UtkarshChawl,CharChaliRoad,DbPawarChowk,RamabaiAmbedkarNagar,GhatkoparEast",216,"Tilak Nagar (Mumbai)","Maharashtra",16,"Mumbai",,19.1247,72.9488,
579,"N ",400089,"YashodharaChawl,NalandaNagar,EasternExpressHighway,DbPawarChowk,RamabaiColony",216,"Tilak Nagar (Mumbai)","Maharashtra",16,"Mumbai",,19.1247,72.9488,
580,"PN",400042,"ChawlNo22,MhbColony,GateNo8,Malwani,MaladWest",118,"Bhandup E","Maharashtra",16,"Mumbai",,19.1026,72.8242,
581,"PN",400042,"FGMullaChawl,NearNooraniMasjid,RaniSatiMarg,Pathanwadi,MaladEast",118,"Bhandup E","Maharashtra",16,"Mumbai",,19.1026,72.8242,
582,"PN",400042,"OmkarSraBuilding,SantoshNagar,Dindoshi,OppShivsenaShakha,MaladEast",118,"Bhandup E","Maharashtra",16,"Mumbai",,19.1026,72.8242,
583,"PN",400042,"PlotNo7,OldCollectorCompound,Malvani,Occ,MaladWest",118,"Bhandup E","Maharashtra",16,"Mumbai",,19.1026,72.8242,
584,"PN",400042,"SceondChapleView,OppInfantJesusChurch,NearFishMarket,KharodiVillage,MaladWest",118,"Bhandup E","Maharashtra",16,"Mumbai",,19.1026,72.8242,
585,"PN",400060,"AbhijitIndravanComplex,AbhijitIndavanComplex,DattaMandirRoad,MaladEast",148,"Jogeshwari E","Maharashtra",16,"Mumbai","Jogeshwari ",19.1699,72.8504,
586,"PN",400062,"BambudeChawl,BambudeCahwl,IndiraNagar,NearWesternExpressHighway,PushpaPark,MaladEast",,,,,,,,,
587,"PN",400062,"NccPlotNo36,NewCollectorCompound,MaladWestMalvani",,,,,,,,,
588,"PN",400063,"BuildingNo1,SanjayGandhiNagar,DindoshiCourt,MaladEast",151,"Sharma Estate","Maharashtra",16,"Mumbai","Goregaon E",19.1624,72.8694,
589,"PN",400063,"VaishaliCHSl,VaishaliApartment,MhadaMalwani,MaladWest",151,"Sharma Estate","Maharashtra",16,"Mumbai","Goregaon E",19.1624,72.8694,
590,"PN",400064,"HumairaPark,4B/112,RanisatiMarg,Pathanwadi,MaladEast",155,"Liberty Garden","Maharashtra",16,"Mumbai","Malad W",19.197,72.845,
591,"PN",400065,"LilyBuilding,LillyBuilding,MantriPark,Dindoshi,MaladEast",157,"S R P F Camp","Maharashtra",16,"Mumbai","JogeshwariE",19.1699,72.8504,
592,"PN",400065,"SainathSociety,SainathSocietysantoshNagar,GoregaonEast",157,"S R P F Camp","Maharashtra",16,"Mumbai","JogeshwariE",19.1699,72.8504,
593,"PN",400076,"GWard,BmcColony,SantoshNagar,GoregaonEast",186,"Powai Iit","Maharashtra",16,"Mumbai",,19.0737,72.9009,
594,"PN",400076,"SolitaireStar,NearDattaMandir,SomwariBazar,SomwariBazar,MaladWest",186,"Powai Iit","Maharashtra",16,"Mumbai",,19.0737,72.9009,
595,"PN",400078,"AlmadinaApartment,Pathanwadi,MaladEast",188,"P.H. Colony","Maharashtra",16,"Mumbai",,19.0737,72.9009,
596,"PN",400078,"HinduDabiChawl,HajiBapuRoad,MaladEast",188,"P.H. Colony","Maharashtra",16,"Mumbai",,19.0737,72.9009,
597,"PN",400078,"ManavshtalBuilding,MahakaliNagar,OffMarveRoad,KacchaRoad,MaladWest",188,"P.H. Colony","Maharashtra",16,"Mumbai",,19.0737,72.9009,
598,"PN",400078,"OldGaneshWadi,BehindStFrancisSchool,LaxmanNagar,MaladEast",188,"P.H. Colony","Maharashtra",16,"Mumbai",,19.0737,72.9009,
599,"PN",400078,"PoonamEnclave,OppWageshwariMandir,MaladEast",188,"P.H. Colony","Maharashtra",16,"Mumbai",,19.0737,72.9009,
600,"PN",400079,"VastuTower,OppRyanIntSchool,EvershineNagar,MaladWest",194,"Psm Colony","Maharashtra",16,"Mumbai",,19.1149,72.9267,
601,"PN",400083,"AWing,MapleHeights,ShivajiNagar,KurarVillage,MaladEast",204,"Kannamwar Nagar","Maharashtra",16,"Mumbai",,19.1247,72.9488,
602,"PN",400083,"AmanEktaChawl,BehindPathanwadiMasjid,RaniSatiMarg,Pathanwadi,MaladEast",204,"Kannamwar Nagar","Maharashtra",16,"Mumbai",,19.1247,72.9488,
603,"PN",400083,"KrantiNagarWelfareSociety,OmjiCompound,Rathodi,MaladWest",204,"Kannamwar Nagar","Maharashtra",16,"Mumbai",,19.1247,72.9488,
604,"PN",400083,"ShivshahiRahivasiSangh,NearMyKitchenHotel,JaiBhimNagar,SantoshNagar,GoregaonEast",204,"Kannamwar Nagar","Maharashtra",16,"Mumbai",,19.1247,72.9488,
605,"PN",400083,"VinodManeChawl,NivetiaRoad,Vadaripada,MamaldEast",204,"Kannamwar Nagar","Maharashtra",16,"Mumbai",,19.1247,72.9488,
606,"PN",400087,"HimgiriBuilding,HimgiriBuilding,OppoStPaulSchool,MalvaniGateNo,Malvani,MaladWest",211,"Sandeepany Sadhanalya","Maharashtra",16,"Mumbai","Mumbai",19.1247,72.9488,
607,"PN",400104,"AdarshSociety,MadhMarket,AdarshSociety,ShivajiNagar,GateNo3,MadhMarket,MaladWest",239,"Bangur Nagar","Maharashtra",16,"Mumbai","Goregaon W",19.0499,73.259,
608,"PN",400104,"BahistApartment,BahistApartment,NearBahjiMarket,Pathanwadi,MaladEast",239,"Bangur Nagar","Maharashtra",16,"Mumbai","Goregaon W",19.0499,73.259,
609,"PN",400104,"DhavalgiriBuilding,NearSonaliPlaza,LibertyGarden,MaladWest",239,"Bangur Nagar","Maharashtra",16,"Mumbai","Goregaon W",19.0499,73.259,
610,"PN",400104,"GaneshPrasadBuilding,GaneshPrasadBuilding,TanajiNagar,KurarVillage,MaladEast",239,"Bangur Nagar","Maharashtra",16,"Mumbai","Goregaon W",19.0499,73.259,
611,"PN",400104,"MasjidCompound,MasjidCompound,SuchakHospital,MaladEast",239,"Bangur Nagar","Maharashtra",16,"Mumbai","Goregaon W",19.0499,73.259,
612,"PN",400104,"MaxmayBuilding,TankRoad,Orlem,MaladWest",239,"Bangur Nagar","Maharashtra",16,"Mumbai","Goregaon W",19.0499,73.259,
613,"PN",400104,"NccPlotNo14,Ncc,PlotNo14,MalvaniGateNo06,Malvani,MaladWest",239,"Bangur Nagar","Maharashtra",16,"Mumbai","Goregaon W",19.0499,73.259,
614,"PN",400104,"Ncc,GateNo7,Malwani,MaladWest",239,"Bangur Nagar","Maharashtra",16,"Mumbai","Goregaon W",19.0499,73.259,
615,"PN",400104,"OscarApartment,OscarApartment,Plot55,PushpaPark,MaladEast",239,"Bangur Nagar","Maharashtra",16,"Mumbai","Goregaon W",19.0499,73.259,
616,"PN",400104,"PlotNo71,GateNo7,Malwani,MaladWest",239,"Bangur Nagar","Maharashtra",16,"Mumbai","Goregaon W",19.0499,73.259,
617,"PN",400104,"RahejaPark,RahejaPark,SanjivaniHospital,MaladEast",239,"Bangur Nagar","Maharashtra",16,"Mumbai","Goregaon W",19.0499,73.259,
618,"PN",400104,"ShivrajApartment,ShivramApartment,RamchandraLane,MaladWest",239,"Bangur Nagar","Maharashtra",16,"Mumbai","Goregaon W",19.0499,73.259,
619,"PN",400104,"UpadhyayChawl,NearAdarshBharaChawl,SanjayNagar,Pathanwadi,MaladEast",239,"Bangur Nagar","Maharashtra",16,"Mumbai","Goregaon W",19.0499,73.259,
620,"PS",400061,"DevisatiVanichaPada,FilmCityRoad,GoregaonEast,GoregaonEast",149,"Madh","Maharashtra",16,"Mumbai","Mumbai",19.15,72.8333,
621,"PS",400064,"Building,RamMandir,GoregaonWest",155,"Liberty Garden","Maharashtra",16,"Mumbai","Malad W",19.197,72.845,
622,"PS",400064,"ZaduGalli,PremNagar,UnnatNagarRoadNo2,GoregaonWest",155,"Liberty Garden","Maharashtra",16,"Mumbai","Malad W",19.197,72.845,
623,"PS",400076,"MillatSociety,Rammandir,GoregaonWest",186,"Powai Iit","Maharashtra",16,"Mumbai",,19.0737,72.9009,
624,"PS",400078,",NrGaneshMaidan,MotilalNagarNo2",188,"P.H. Colony","Maharashtra",16,"Mumbai",,19.0737,72.9009,
625,"PS",400078,"114/8,JawaharNagar,RoadNo8,OppositeBankOfBaroda,GoregaonWest",188,"P.H. Colony","Maharashtra",16,"Mumbai",,19.0737,72.9009,
626,"PS",400078,"LakhauLethaChawl,RNo3,Ramnagar,Bandrekarwadi,JogeshwariEast,Bandrekarwadi,JogeshwariEast",188,"P.H. Colony","Maharashtra",16,"Mumbai",,19.0737,72.9009,
627,"PS",400078,"LaxmiNagar,LinkRoad,OppSaiCHSl,LaxmiNagar",188,"P.H. Colony","Maharashtra",16,"Mumbai",,19.0737,72.9009,
628,"PS",400078,"RoyalPalm,GoregaonEast",188,"P.H. Colony","Maharashtra",16,"Mumbai",,19.0737,72.9009,
629,"PS",400078,"VikasBuilding,LaxmiNagar,GoregaonWest",188,"P.H. Colony","Maharashtra",16,"Mumbai",,19.0737,72.9009,
630,"PS",400080,"SwastikResidency,RoadNo2JawaharNagar,JawaharNagar",195,"S.B. Road","Maharashtra",16,"Mumbai",,19.176,72.9522,
631,"PS",400083,"AKTower,OppositeDhs,SVRoad,GoregaonWest",204,"Kannamwar Nagar","Maharashtra",16,"Mumbai",,19.1247,72.9488,
632,"PS",400083,"BWing,KumudNagar,SvRoad,GoregaonWest",204,"Kannamwar Nagar","Maharashtra",16,"Mumbai",,19.1247,72.9488,
633,"PS",400083,"HanumanTekdi,SaiNagar,NearHanumanTekdi,HanumanTekdi,GoregaonEast",204,"Kannamwar Nagar","Maharashtra",16,"Mumbai",,19.1247,72.9488,
634,"PS",400083,"JaiBhavaniChawl,PremNagar,HanumanNagar,GoregaonWest",204,"Kannamwar Nagar","Maharashtra",16,"Mumbai",,19.1247,72.9488,
635,"PS",400083,"MasjidGalli,BhagatSinghNagarNo1,NrTayyabaMasjid,BhagatSinghNagar",204,"Kannamwar Nagar","Maharashtra",16,"Mumbai",,19.1247,72.9488,
636,"PS",400097,"BhagatSinghNagarNo1,HanumanMandirGalli,NearAnnabhauSathe,SamajMandir,GoregaonWest",225,"Malad E","Maharashtra",16,"Mumbai","Malad E",19.2355,72.8468,
637,"PS",400097,"DBWoods,FilmCityRoad,KrishnaVatikaMarg,Gokuldham,GoregaonEast",225,"Malad E","Maharashtra",16,"Mumbai","Malad E",19.2355,72.8468,
638,"PS",400097,"NewHanumanSusanskrutiSociety,MgRoad,GoregaonWest,GoregaonWest",225,"Malad E","Maharashtra",16,"Mumbai","Malad E",19.2355,72.8468,
639,"PS",400097,"SahyadriBuilding,AareyRoad,PeruBaug,NearPritamFastFood,GoregaonEast",225,"Malad E","Maharashtra",16,"Mumbai","Malad E",19.2355,72.8468,
640,"PS",400097,"ShankarNagar,NearRustomjeeTower,VasriHill,DearYugadharmaTower,GoregaonWest",225,"Malad E","Maharashtra",16,"Mumbai","Malad E",19.2355,72.8468,
641,"PS",400097,"SuvidhaChawl,BhagatSinghNagarNo1,GoregaonWest",225,"Malad E","Maharashtra",16,"Mumbai","Malad E",19.2355,72.8468,
642,"RC",400063,"PoliceQuarters,YogiNagar,PoliceQuarters,YogiNagar,BorivaliWest",151,"Sharma Estate","Maharashtra",16,"Mumbai","Goregaon E",19.1624,72.8694,
643,"RC",400095,"NewTransitCamp,4BNewTransitCamp,TataPowerRoad,PhoolpakharuGarden,BorivaliEast",222,"Kharodi","Maharashtra",16,"Mumbai","Malad W",19.2355,72.8468,
644,"RC",400095,"PanwalaChawl,KulupWadi,ShivsenaShakha,BorivaliEast",222,"Kharodi","Maharashtra",16,"Mumbai","Malad W",19.2355,72.8468,
645,"RC",400095,"PatiHouse,EksarRd,Talepakhadi,BorivaliWest",222,"Kharodi","Maharashtra",16,"Mumbai","Malad W",19.2355,72.8468,
646,"RC",400095,"SaibabaBuilding,SaibabaBuilding,CharkopSec9,BorivaliWest",222,"Kharodi","Maharashtra",16,"Mumbai","Malad W",19.2355,72.8468,
647,"RC",400095,"SiddharthNaharComplex,SiddhatrhNaharComplex,SiddharthNagar,SiddhartNagar,BorivaliEast",222,"Kharodi","Maharashtra",16,"Mumbai","Malad W",19.2355,72.8468,
648,"RC",400095,"SiddhivinayakCHS,FurnitureGalli,DonBosco,BorivaliWest",222,"Kharodi","Maharashtra",16,"Mumbai","Malad W",19.2355,72.8468,
649,"RC",400095,"Yogeshwar,YogeshwarCHSPlotNo40,Gorai2,PepsiGround,BorivaliWest",222,"Kharodi","Maharashtra",16,"Mumbai","Malad W",19.2355,72.8468,
650,"RC",400097,"SbiBuilding,Chikuwadi,BorivaliWest",225,"Malad E","Maharashtra",16,"Mumbai","Malad E",19.2355,72.8468,
651,"RC",400097,"ShivVeerBuilding,ShivVeer,PlotNo24,CharkopSec8,BorivaliWest",225,"Malad E","Maharashtra",16,"Mumbai","Malad E",19.2355,72.8468,
652,"RC",400097,"SiddhivinayakBuilding,Siddhivinayak,Sukarwadi,BorivaliWest",225,"Malad E","Maharashtra",16,"Mumbai","Malad E",19.2355,72.8468,
653,"RN",400063,"HillCrest,HillCrest,ICColony,DahisarWest",151,"Sharma Estate","Maharashtra",16,"Mumbai","Goregaon E",19.1624,72.8694,
654,"RN",400095,"BellsHeaven,DrShrinigiMarg,LicColony,DahisarWest",222,"Kharodi","Maharashtra",16,"Mumbai","Malad W",19.2355,72.8468,
655,"RN",400097,"PadwalAndRamchandraGuravChawl,BabuPednekarRoad,Ketkipada,DahisarEast",225,"Malad E","Maharashtra",16,"Mumbai","Malad E",19.2355,72.8468,
656,"RN",400097,"SainathChawl,ShivTekdi,DahisarEast",225,"Malad E","Maharashtra",16,"Mumbai","Malad E",19.2355,72.8468,
657,"RN",400097,"SnehalChawl,Kandarpada,Kandarpada,DahisarWest",225,"Malad E","Maharashtra",16,"Mumbai","Malad E",19.2355,72.8468,
658,"RN",400097,"ValmikiChawl(Slum),ValmikiChawl,DnDubeyRd,Ambawadi,DahisarEast",225,"Malad E","Maharashtra",16,"Mumbai","Malad E",19.2355,72.8468,
659,"RS",400063,"JansevaSamiti,AzadCompound,OppChandrikaHotel,KandivaliWest",151,"Sharma Estate","Maharashtra",16,"Mumbai","Goregaon E",19.1624,72.8694,
660,"RS",400064,"EmpBldgNo49,ThakurVillage,KandivaliEast",155,"Liberty Garden","Maharashtra",16,"Mumbai","Malad W",19.197,72.845,
661,"RS",400066,"JayAmbeChawl,MathuradasRoad,SharmaCompound,KandivaliWest,",164,"S. K.Nagar","Maharashtra",16,"Mumbai","Borivali E",19.1699,72.8504,
662,"RS",400067,"DevjiVithateChawal,No93,ThakurVillage,DattaniPark,KandivaliEast",167,"Charkop","Maharashtra",16,"Mumbai","Kandivlai W",19.1699,72.8504,
663,"RS",400067,"SaiPrasadChawl,ThakurVillage,Janupada,NearSaiBabaMandir,KandivaliEast",167,"Charkop","Maharashtra",16,"Mumbai","Kandivlai W",19.1699,72.8504,
664,"RS",400068,"EktaNagar,GalliNo07,OldLinkRoad,OppPetrolPump,NearAshishHotel,KandivaliWest",168,"Dahisar","Maharashtra",16,"Mumbai","Dahisar E",19.2565,72.8733,
665,"RS",400068,"ShivshaktiChawl,ShivshaktiCompound,GandhiNagar,KandivaliWest",168,"Dahisar","Maharashtra",16,"Mumbai","Dahisar E",19.2565,72.8733,
666,"RS",400095,"BhoomiResidency,MahavirNagar,KandivaliWest",222,"Kharodi","Maharashtra",16,"Mumbai","Malad W",19.2355,72.8468,
667,"RS",400095,"BldgNo14,EktaNagar,Mhada,KandivaliWest",222,"Kharodi","Maharashtra",16,"Mumbai","Malad W",19.2355,72.8468,
668,"RS",400095,"DharamveerCHS,IraniwadiRoadNo3,KandivaliWest",222,"Kharodi","Maharashtra",16,"Mumbai","Malad W",19.2355,72.8468,
669,"RS",400095,"LadiwalaBhavan,A31,LadiwalaBhavan,NextToFireBrigde,KandivaliWest",222,"Kharodi","Maharashtra",16,"Mumbai","Malad W",19.2355,72.8468,
670,"RS",400095,"SadabaharChawl,AzadCompound,RamGalli,OppChandrikaHotel,KandivaliWest",222,"Kharodi","Maharashtra",16,"Mumbai","Malad W",19.2355,72.8468,
671,"RS",400097,"BldgNo31,EktaNagar,Kandivali(W),Bldg31,EktaNagar,Mhada,KandivaliWest",225,"Malad E","Maharashtra",16,"Mumbai","Malad E",19.2355,72.8468,
672,"RS",400097,"J3BlockNo3,MahavirNagar,KandivaliWest",225,"Malad E","Maharashtra",16,"Mumbai","Malad E",19.2355,72.8468,
673,"RS",400097,"LokmanyaChawlNo,2,WadarPada,RoadNo2,HanumanNagar,KandivaliEast,Mumabi",225,"Malad E","Maharashtra",16,"Mumbai","Malad E",19.2355,72.8468,
674,"RS",400097,"RajArcade,RajArcade,MahavirNagar,AboveAxisBank,KandivaliWest,Mumbai,",225,"Malad E","Maharashtra",16,"Mumbai","Malad E",19.2355,72.8468,
675,"RS",400097,"RukiyabaiNoorMohommadChawl,Bandongari,KandivaliEast,Mumbai",225,"Malad E","Maharashtra",16,"Mumbai","Malad E",19.2355,72.8468,
676,"RS",400097,"SagarSocietySra,SagarSociety,HanumanNagar,NrAyyappaMandir,KandivaliEast,Mumbai",225,"Malad E","Maharashtra",16,"Mumbai","Malad E",19.2355,72.8468,
677,"RS",400097,"SilverAvenue,SilverAvenue,JulekabaiChanduChawl,SVRoad,NrMasjid,Poisar,KandivaliWest,",225,"Malad E","Maharashtra",16,"Mumbai","Malad E",19.2355,72.8468,
678,"RS",400101,"BhoomiSanket,MahavirNagar,KandivaliWest,",232,"Kandivali E","Maharashtra",16,"Mumbai","Kandivali E",19.0499,73.259,
679,"RS",400101,"NandanvanCHS,PlotNo235,Charkop,KandivaliWest",232,"Kandivali E","Maharashtra",16,"Mumbai","Kandivali E",19.0499,73.259,
680,"RS",400103,"DeepGangaCHSl,NeelkanthNagar,GaneshNagar,MhadaColony,KandivaliWest",235,"Mandapeshwar","Maharashtra",16,"Mumbai","Borivali W",19.0499,73.259,
681,"RS",400103,"PatilHouse,MG,Road,NrGauravGarden,BundarPakhadi,KandivaliWest",235,"Mandapeshwar","Maharashtra",16,"Mumbai","Borivali W",19.0499,73.259,
682,"RS",400103,"SagarSoc,SagarSoc,CharkopSec2,Rsc7,CharkopSec2,KandivaliWest",235,"Mandapeshwar","Maharashtra",16,"Mumbai","Borivali W",19.0499,73.259,
683,"S ",400066,"CWing,RajSpendourCHS,RajSpendourCHS,LbsRoad,NextToRajLegacyComplex,Vikhroli(W)",164,"S. K.Nagar","Maharashtra",16,"Mumbai","Borivali E",19.1699,72.8504,
684,"S ",400066,"KambleCompound,NearPanCHSheelBuddhvihar,PratapNagarRoad,Bhandup(W)",164,"S. K.Nagar","Maharashtra",16,"Mumbai","Borivali E",19.1699,72.8504,
685,"S ",400066,"PanCHSheelChawl,NearKailasMandir,Suryanagar,Vikhroli(W)",164,"S. K.Nagar","Maharashtra",16,"Mumbai","Borivali E",19.1699,72.8504,
686,"S ",400067,"Bhandup(E),NavYashodharaCHS,UdayshreeRoad,Bhandup(E)",167,"Charkop","Maharashtra",16,"Mumbai","Kandivlai W",19.1699,72.8504,
687,"S ",400067,"BuildingNo215/8448,KannamwarNagar-1,Vikhroli,KannamwarNagar-1,NearGajananMaharajChowk,Vikhroli(E)",167,"Charkop","Maharashtra",16,"Mumbai","Kandivlai W",19.1699,72.8504,
688,"S ",400067,"ChaitanyaNagar,PanCHShilSociety,OppIitMainGate,ChaitanyaNagar,PowaiMumbai",167,"Charkop","Maharashtra",16,"Mumbai","Kandivlai W",19.1699,72.8504,
689,"S ",400067,"ChawlNo1,SaiHillBhandup,NarayanCHS,SaiHill,Bhandup(W)",167,"Charkop","Maharashtra",16,"Mumbai","Kandivlai W",19.1699,72.8504,
690,"S ",400067,"GaneshNager,SitaramJadhavChawl,BehindMangatPetrolPump,KajuHill,GaneshNager,Bhandup(W)",167,"Charkop","Maharashtra",16,"Mumbai","Kandivlai W",19.1699,72.8504,
691,"S ",400067,"JuvekarRoad,Bhandup,ArogyasadanSociety,JuvekarRoad,Bhandup(E)",167,"Charkop","Maharashtra",16,"Mumbai","Kandivlai W",19.1699,72.8504,
692,"S ",400067,"Khindipada,AnandThakurChawl,NearShivsenaShakha,Khindipada",167,"Charkop","Maharashtra",16,"Mumbai","Kandivlai W",19.1699,72.8504,
693,"S ",400067,"Khindipada,VishwashantiCHS,NearOmegaSchool,Khadan,Khindipada",167,"Charkop","Maharashtra",16,"Mumbai","Kandivlai W",19.1699,72.8504,
694,"S ",400067,"NeharuNagar,AmbikaNiwas,NeharuNagar,KanjurmargEast",167,"Charkop","Maharashtra",16,"Mumbai","Kandivlai W",19.1699,72.8504,
695,"S ",400067,"NewParivartanSociety,LbsRoad,K-1,MmrdaColony,KanjurmargRailwayStation,Kanjurmarg(W)",167,"Charkop","Maharashtra",16,"Mumbai","Kandivlai W",19.1699,72.8504,
696,"S ",400067,"PritiNiwasChawl,MarodaHill,Tembhipada,Bhandup(W)",167,"Charkop","Maharashtra",16,"Mumbai","Kandivlai W",19.1699,72.8504,
697,"S ",400067,"RajivGanghiNagarChawl,Bhandup(W),Sonapur,DargahRoad,RajivGandhiNagarChawl,Bhandup(W)",167,"Charkop","Maharashtra",16,"Mumbai","Kandivlai W",19.1699,72.8504,
698,"S ",400067,"SaiNagar,BhandupEast,NandaSawantChawlNo14,SaiNagar,BhandupEast",167,"Charkop","Maharashtra",16,"Mumbai","Kandivlai W",19.1699,72.8504,
699,"S ",400067,"SamruddhiGardensSociety,JoyHomesBuilding,SamrudhhiGarden,JoyHomesCHS,LbsRoad,NearIshwarNagar,BhandupWest",167,"Charkop","Maharashtra",16,"Mumbai","Kandivlai W",19.1699,72.8504,
700,"S ",400067,"TagorNagarNo8,TagorNagarGroupNo8,TagorNagar,VikroliEast",167,"Charkop","Maharashtra",16,"Mumbai","Kandivlai W",19.1699,72.8504,
701,"S ",400067,"Tagorenagar,Vikhroli,RajMohhammadChawl,MasjidRoadNo2,Tagorenagar,Vikhroli(E)",167,"Charkop","Maharashtra",16,"Mumbai","Kandivlai W",19.1699,72.8504,
702,"S ",400092,"BldgNo230,KannamwarNagar-I,Vikhroli(E)",219,"Borivali W","Maharashtra",16,"Mumbai","Borivali W",19.2361,72.8338,
703,"S ",400092,"GuravChawl,Tembhipada,Vaghobawadi,BhandupWest",219,"Borivali W","Maharashtra",16,"Mumbai","Borivali W",19.2361,72.8338,
704,"S ",400092,"IndiraVikasSevaSanghChawlNo1,KannamwarNagar-Ii,OppBldgNo178,Vikhroli(E)",219,"Borivali W","Maharashtra",16,"Mumbai","Borivali W",19.2361,72.8338,
705,"S ",400092,"Milindnagar,NearL&TCompoundWall,Powai",219,"Borivali W","Maharashtra",16,"Mumbai","Borivali W",19.2361,72.8338,
706,"S ",400092,"PrashantSagarCHS,JaydeepNagar,BhandupEast",219,"Borivali W","Maharashtra",16,"Mumbai","Borivali W",19.2361,72.8338,
707,"S ",400092,"SahjivanHeights,CriticareHopsital,PratapNagarRoad,KokanNagar,Bhandup(W)",219,"Borivali W","Maharashtra",16,"Mumbai","Borivali W",19.2361,72.8338,
708,"S ",400092,"ShakuntalaNiwas,BhandupVillage,Bhandup(W)",219,"Borivali W","Maharashtra",16,"Mumbai","Borivali W",19.2361,72.8338,
709,"S ",400092,"SwastikApt,ShivaiSchool,BhandupEast",219,"Borivali W","Maharashtra",16,"Mumbai","Borivali W",19.2361,72.8338,
710,"S ",400101,"DivineCHS,BehindTirandazSchool,Powai",232,"Kandivali E","Maharashtra",16,"Mumbai","Kandivali E",19.0499,73.259,
711,"S ",400101,"JituRaiYadavChawl,PratapnagarRoad,MunshiMahal,Bhandup(W)",232,"Kandivali E","Maharashtra",16,"Mumbai","Kandivali E",19.0499,73.259,
712,"S ",400101,"MhadaBuilding,KannamwarNagar,MhadaBuildingChawl,KannamwarNagar,Vikhroli(E)",232,"Kandivali E","Maharashtra",16,"Mumbai","Kandivali E",19.0499,73.259,
713,"S ",400101,"NeelkamalCHS,Tagorenagar,Vikhroli(E)",232,"Kandivali E","Maharashtra",16,"Mumbai","Kandivali E",19.0499,73.259,
714,"T ",400080,"BuildingNo1,&6,McgmQuarters,BhandupComplex,Khindipada,MulundWest",195,"S.B. Road","Maharashtra",16,"Mumbai",,19.176,72.9522,
715,"T ",400080,"IndiraNagar-3,ShaktiChawl,JNRoad,ShivsenaShakha,MulundWest",195,"S.B. Road","Maharashtra",16,"Mumbai",,19.176,72.9522,
716,"T ",400080,"ParkRoyalCHS,MadanmohanMalviyaRoad,OffLbsRoad,MulundWest",195,"S.B. Road","Maharashtra",16,"Mumbai",,19.176,72.9522,
717,"T ",400080,"VivekanadSociety,JNRoad,SarvodayNagr,MulundWest",195,"S.B. Road","Maharashtra",16,"Mumbai",,19.176,72.9522,
718,"T ",400081,"DhansampadaCHS,NeelamNagar,AboveSahkarBhavan,MulundEast",200,"Mulund E","Maharashtra",16,"Mumbai",,19.1649,72.9608,
719,"T ",400081,"MangalSrushti,NeelamNagar,HariomSweets,MulundEast",200,"Mulund E","Maharashtra",16,"Mumbai",,19.1649,72.9608,
720,"T ",400081,"SpandanHospital,NeelamNagar,OppMatrutvaHospital,MulundEast",200,"Mulund E","Maharashtra",16,"Mumbai",,19.1649,72.9608,
